{
  "type": "FeatureCollection",
  "features": [
    {
      "type": "Feature",
      "geometry": {
        "type": "Point",
        "coordinates": [
          30.1005435,
          31.3041797
        ]
      },
      "properties": {
        "locationID": "adr001",
        "Location/feature name (incl. historical names)": "Temple of Isis at Menouthis",
        "COMPLETE": "TRUE",
        "Geometry type": "point",
        "Geography type": "address",
        "Country": "Egypt",
        "Region": "",
        "State/Province": "",
        "County": "",
        "City": "",
        "Neighborhood (incl. boroughs)": "",
        "Street address": "",
        "Notes": "",
        "Source": ""
      }
    },
    {
      "type": "Feature",
      "geometry": {
        "type": "Point",
        "coordinates": [
          -117.5831069,
          34.0743663
        ]
      },
      "properties": {
        "locationID": "adr002",
        "Location/feature name (incl. historical names)": "Ontario Motor Speedway",
        "COMPLETE": "TRUE",
        "Geometry type": "point",
        "Geography type": "address",
        "Country": "USA",
        "Region": "",
        "State/Province": "California",
        "County": "",
        "City": "Ontario",
        "Neighborhood (incl. boroughs)": "",
        "Street address": "915 N Center Ave",
        "Notes": " ",
        "Source": "https://datahub.io/core/geo-countries#resource-countries"
      }
    },
    {
      "type": "Feature",
      "geometry": {
        "type": "Point",
        "coordinates": [
          -118.348971288624,
          34.0834565328965
        ]
      },
      "properties": {
        "locationID": "adr003",
        "Location/feature name (incl. historical names)": "retail SLUT",
        "COMPLETE": "TRUE",
        "Geometry type": "point",
        "Geography type": "address",
        "Country": "USA",
        "Region": "",
        "State/Province": "California",
        "County": "",
        "City": "Los Angeles",
        "Neighborhood (incl. boroughs)": "",
        "Street address": "7308 Melrose Ave",
        "Notes": " ",
        "Source": ""
      }
    },
    {
      "type": "Feature",
      "geometry": {
        "type": "Point",
        "coordinates": [
          -117.749526127093,
          34.0623238418456
        ]
      },
      "properties": {
        "locationID": "adr004",
        "Location/feature name (incl. historical names)": "Travelodge",
        "COMPLETE": "TRUE",
        "Geometry type": "point",
        "Geography type": "address",
        "Country": "USA",
        "Region": "",
        "State/Province": "California",
        "County": "",
        "City": "Pomona",
        "Neighborhood (incl. boroughs)": "",
        "Street address": "130 E Holt Ave",
        "Notes": " ",
        "Source": ""
      }
    },
    {
      "type": "Feature",
      "geometry": {
        "type": "Point",
        "coordinates": [
          -118.185860146312,
          33.768396511576
        ]
      },
      "properties": {
        "locationID": "adr005",
        "Location/feature name (incl. historical names)": "Fender's Ballroom",
        "COMPLETE": "TRUE",
        "Geometry type": "point",
        "Geography type": "address",
        "Country": "USA",
        "Region": "",
        "State/Province": "California",
        "County": "",
        "City": "Long Beach",
        "Neighborhood (incl. boroughs)": "",
        "Street address": "521 E 1st St",
        "Notes": "",
        "Source": "https://datahub.io/core/geo-countries#resource-countries"
      }
    },
    {
      "type": "Feature",
      "geometry": {
        "type": "Point",
        "coordinates": [
          -118.319084461641,
          34.0890617787608
        ]
      },
      "properties": {
        "locationID": "adr006",
        "Location/feature name (incl. historical names)": "Hollywood Forever Cemetery",
        "COMPLETE": "TRUE",
        "Geometry type": "point",
        "Geography type": "address",
        "Country": "USA",
        "Region": "",
        "State/Province": "California",
        "County": "",
        "City": "Los Angeles",
        "Neighborhood (incl. boroughs)": "",
        "Street address": "6000 Santa Monica Blvd",
        "Notes": " ",
        "Source": ""
      }
    },
    {
      "type": "Feature",
      "geometry": {
        "type": "Point",
        "coordinates": [
          -0.132878716809172,
          51.5135285632969
        ]
      },
      "properties": {
        "locationID": "adr007",
        "Location/feature name (incl. historical names)": "Batcave",
        "COMPLETE": "TRUE",
        "Geometry type": "point",
        "Geography type": "address",
        "Country": "England",
        "Region": "",
        "State/Province": "",
        "County": "",
        "City": "London",
        "Neighborhood (incl. boroughs)": "",
        "Street address": "4 Meard St",
        "Notes": "",
        "Source": ""
      }
    },
    {
      "type": "Feature",
      "geometry": {
        "type": "Point",
        "coordinates": [
          30.6110521519037,
          69.3958678046257
        ]
      },
      "properties": {
        "locationID": "adr008",
        "Location/feature name (incl. historical names)": "Kola Superdeep Borehole",
        "COMPLETE": "TRUE",
        "Geometry type": "point",
        "Geography type": "address",
        "Country": "Russia",
        "Region": "",
        "State/Province": "",
        "County": "",
        "City": "",
        "Neighborhood (incl. boroughs)": "",
        "Street address": "",
        "Notes": "",
        "Source": "https://datahub.io/core/geo-countries#resource-countries"
      }
    },
    {
      "type": "Feature",
      "geometry": {
        "type": "Point",
        "coordinates": [
          -118.32929,
          34.0480284
        ]
      },
      "properties": {
        "locationID": "adr009",
        "Location/feature name (incl. historical names)": "Pico Blvd & Crenshaw Blvd",
        "COMPLETE": "TRUE",
        "Geometry type": "point",
        "Geography type": "address",
        "Country": " ",
        "Region": "",
        "State/Province": "",
        "County": "",
        "City": "",
        "Neighborhood (incl. boroughs)": "",
        "Street address": "Pico Blvd & Crenshaw Blvd",
        "Notes": " ",
        "Source": ""
      }
    },
    {
      "type": "Feature",
      "geometry": {
        "type": "Point",
        "coordinates": [
          9.4133271,
          56.1509523
        ]
      },
      "properties": {
        "locationID": "adr010",
        "Location/feature name (incl. historical names)": "Tollund",
        "COMPLETE": "TRUE",
        "Geometry type": "point",
        "Geography type": "address",
        "Country": "Denmark",
        "Region": "",
        "State/Province": "",
        "County": "",
        "City": "Silkeborg",
        "Neighborhood (incl. boroughs)": "",
        "Street address": "",
        "Notes": "",
        "Source": ""
      }
    },
    {
      "type": "Feature",
      "geometry": {
        "type": "Point",
        "coordinates": [
          -96.808611,
          32.778611
        ]
      },
      "properties": {
        "locationID": "adr011",
        "Location/feature name (incl. historical names)": "Dealey Plaza",
        "COMPLETE": "TRUE",
        "Geometry type": "point",
        "Geography type": "address",
        "Country": "USA",
        "Region": "",
        "State/Province": "Texas",
        "County": "",
        "City": "Dallas",
        "Neighborhood (incl. boroughs)": "",
        "Street address": "",
        "Notes": "",
        "Source": "https://datahub.io/core/geo-countries#resource-countries"
      }
    },
    {
      "type": "Feature",
      "geometry": {
        "type": "Point",
        "coordinates": [
          -97.038056,
          32.896944
        ]
      },
      "properties": {
        "locationID": "adr012",
        "Location/feature name (incl. historical names)": "Dallas/Fort Worth Airport",
        "COMPLETE": "TRUE",
        "Geometry type": "point",
        "Geography type": "address",
        "Country": "USA",
        "Region": "",
        "State/Province": "Texas",
        "County": "",
        "City": "",
        "Neighborhood (incl. boroughs)": "",
        "Street address": "2400 Aviation Dr, DFW Airport",
        "Notes": " ",
        "Source": ""
      }
    },
    {
      "type": "Feature",
      "geometry": {
        "type": "Point",
        "coordinates": [
          -75.390278,
          40.088333
        ]
      },
      "properties": {
        "locationID": "adr013",
        "Location/feature name (incl. historical names)": "King of Prussia Mall",
        "COMPLETE": "TRUE",
        "Geometry type": "point",
        "Geography type": "address",
        "Country": "USA",
        "Region": "",
        "State/Province": "Pennsylvania",
        "County": "",
        "City": "King of Prussia",
        "Neighborhood (incl. boroughs)": "",
        "Street address": "160 N Gulph Rd",
        "Notes": " ",
        "Source": ""
      }
    },
    {
      "type": "Feature",
      "geometry": {
        "type": "Point",
        "coordinates": [
          -75.1706,
          39.9488
        ]
      },
      "properties": {
        "locationID": "adr014",
        "Location/feature name (incl. historical names)": "Curtis Institute",
        "COMPLETE": "TRUE",
        "Geometry type": "point",
        "Geography type": "address",
        "Country": "USA",
        "Region": "",
        "State/Province": "Pennsylvania",
        "County": "",
        "City": "Philadelphia",
        "Neighborhood (incl. boroughs)": "",
        "Street address": "1726 Locust St",
        "Notes": " ",
        "Source": "https://datahub.io/core/geo-countries#resource-countries"
      }
    },
    {
      "type": "Feature",
      "geometry": {
        "type": "Point",
        "coordinates": [
          -73.970518,
          40.674584
        ]
      },
      "properties": {
        "locationID": "adr015",
        "Location/feature name (incl. historical names)": "Grand Army Plaza",
        "COMPLETE": "TRUE",
        "Geometry type": "point",
        "Geography type": "address",
        "Country": "USA",
        "Region": "",
        "State/Province": "New York",
        "County": "",
        "City": "New York",
        "Neighborhood (incl. boroughs)": "",
        "Street address": "Plaza Street West, St. Johns Place, & Flatbush Avenue",
        "Notes": " ",
        "Source": ""
      }
    },
    {
      "type": "Feature",
      "geometry": {
        "type": "Point",
        "coordinates": [
          -122.654653271163,
          45.532491690306
        ]
      },
      "properties": {
        "locationID": "adr016",
        "Location/feature name (incl. historical names)": "Lloyd Center",
        "COMPLETE": "TRUE",
        "Geometry type": "point",
        "Geography type": "address",
        "Country": "USA",
        "Region": "",
        "State/Province": "Oregon",
        "County": "",
        "City": "Portland",
        "Neighborhood (incl. boroughs)": "",
        "Street address": "2201 Lloyd Center",
        "Notes": " ",
        "Source": ""
      }
    },
    {
      "type": "Feature",
      "geometry": {
        "type": "Point",
        "coordinates": [
          -118.388174484655,
          34.0911058565581
        ]
      },
      "properties": {
        "locationID": "adr017",
        "Location/feature name (incl. historical names)": "Rainbow Bar and Grill",
        "COMPLETE": "TRUE",
        "Geometry type": "point",
        "Geography type": "address",
        "Country": "USA",
        "Region": "",
        "State/Province": "California",
        "County": "",
        "City": "West Hollywood",
        "Neighborhood (incl. boroughs)": " ",
        "Street address": "9015 Sunset Blvd",
        "Notes": " ",
        "Source": ""
      }
    },
    {
      "type": "Feature",
      "geometry": {
        "type": "Point",
        "coordinates": [
          -73.8996726711646,
          40.8866778547969
        ]
      },
      "properties": {
        "locationID": "adr018",
        "Location/feature name (incl. historical names)": "Broadway and Van Cortland Park",
        "COMPLETE": "TRUE",
        "Geometry type": "point",
        "Geography type": "address",
        "Country": "USA",
        "Region": "",
        "State/Province": "New York",
        "County": "",
        "City": "New York",
        "Neighborhood (incl. boroughs)": "Bronx",
        "Street address": "Broadway and, Van Cortlandt Park S",
        "Notes": " ",
        "Source": ""
      }
    },
    {
      "type": "Feature",
      "geometry": {
        "type": "Point",
        "coordinates": [
          -122.6766272,
          45.5318954
        ]
      },
      "properties": {
        "locationID": "adr019",
        "Location/feature name (incl. historical names)": "Broadway Bridge, OR",
        "COMPLETE": "TRUE",
        "Geometry type": "point",
        "Geography type": "address",
        "Country": "USA",
        "Region": "",
        "State/Province": "Oregon",
        "County": "",
        "City": "Portland",
        "Neighborhood (incl. boroughs)": "",
        "Street address": "",
        "Notes": "",
        "Source": "https://datahub.io/core/geo-countries#resource-countries"
      }
    },
    {
      "type": "Feature",
      "geometry": {
        "type": "Point",
        "coordinates": [
          -92.668291,
          41.9963751
        ]
      },
      "properties": {
        "locationID": "adr020",
        "Location/feature name (incl. historical names)": "Meskwaki Bingo Casino Hotel",
        "COMPLETE": "TRUE",
        "Geometry type": "point",
        "Geography type": "address",
        "Country": "USA",
        "Region": "",
        "State/Province": "Iowa",
        "County": "",
        "City": "Tama",
        "Neighborhood (incl. boroughs)": "",
        "Street address": "1504 305th St",
        "Notes": " ",
        "Source": ""
      }
    },
    {
      "type": "Feature",
      "geometry": {
        "type": "Point",
        "coordinates": [
          -117.7545315,
          34.0577234
        ]
      },
      "properties": {
        "locationID": "adr021",
        "Location/feature name (incl. historical names)": "Pomona Mall",
        "COMPLETE": "TRUE",
        "Geometry type": "point",
        "Geography type": "address",
        "Country": "USA",
        "Region": "",
        "State/Province": "California",
        "County": "",
        "City": "Pomona",
        "Neighborhood (incl. boroughs)": "",
        "Street address": "2nd Street and Park Avenue",
        "Notes": " ",
        "Source": ""
      }
    },
    {
      "type": "Feature",
      "geometry": {
        "type": "Point",
        "coordinates": [
          -122.6675459,
          45.5230479
        ]
      },
      "properties": {
        "locationID": "adr022",
        "Location/feature name (incl. historical names)": "Burnside Bridge",
        "COMPLETE": "TRUE",
        "Geometry type": "point",
        "Geography type": "address",
        "Country": "USA",
        "Region": "",
        "State/Province": "Oregon",
        "County": "",
        "City": "Portland",
        "Neighborhood (incl. boroughs)": "",
        "Street address": "",
        "Notes": "",
        "Source": "https://datahub.io/core/geo-countries#resource-countries"
      }
    },
    {
      "type": "Feature",
      "geometry": {
        "type": "Point",
        "coordinates": [
          -76.7776914759018,
          18.0086739849108
        ]
      },
      "properties": {
        "locationID": "adr023",
        "Location/feature name (incl. historical names)": "AC Hotel by Marriott",
        "COMPLETE": "TRUE",
        "Geometry type": "point",
        "Geography type": "address",
        "Country": "Jamaica",
        "Region": "",
        "State/Province": "",
        "County": "",
        "City": "Kingston",
        "Neighborhood (incl. boroughs)": "",
        "Street address": "38-42 Lady Musgrave Rd",
        "Notes": " ",
        "Source": "https://datahub.io/core/geo-countries#resource-countries"
      }
    },
    {
      "type": "Feature",
      "geometry": {
        "type": "Point",
        "coordinates": [
          -122.8035328,
          45.5197526
        ]
      },
      "properties": {
        "locationID": "adr024",
        "Location/feature name (incl. historical names)": "Lakeview Apartments",
        "COMPLETE": "TRUE",
        "Geometry type": "point",
        "Geography type": "address",
        "Country": "USA",
        "Region": "",
        "State/Province": "Oregon",
        "County": "",
        "City": "Portland",
        "Neighborhood (incl. boroughs)": "",
        "Street address": "12622 SW Barnes Rd",
        "Notes": " ",
        "Source": ""
      }
    },
    {
      "type": "Feature",
      "geometry": {
        "type": "Point",
        "coordinates": [
          -89.2637736976552,
          38.8972444000087
        ]
      },
      "properties": {
        "locationID": "adr025",
        "Location/feature name (incl. historical names)": "Durham Cemetery",
        "COMPLETE": "TRUE",
        "Geometry type": "point",
        "Geography type": "address",
        "Country": "USA",
        "Region": "",
        "State/Province": "Illinois",
        "County": "",
        "City": "Mulberry Grove",
        "Neighborhood (incl. boroughs)": " ",
        "Street address": "",
        "Notes": "",
        "Source": "https://datahub.io/core/geo-countries#resource-countries"
      }
    },
    {
      "type": "Feature",
      "geometry": {
        "type": "Point",
        "coordinates": [
          -84.63528,
          40.10417
        ]
      },
      "properties": {
        "locationID": "adr026",
        "Location/feature name (incl. historical names)": "Broadway Bridge, OH",
        "COMPLETE": "TRUE",
        "Geometry type": "point",
        "Geography type": "address",
        "Country": "USA",
        "Region": "",
        "State/Province": "Ohio",
        "County": "",
        "City": "Greenville",
        "Neighborhood (incl. boroughs)": "",
        "Street address": "",
        "Notes": "",
        "Source": "https://datahub.io/core/geo-countries#resource-countries"
      }
    }
  ]
}
