{
  "type": "FeatureCollection",
  "features": [
    {
      "type": "Feature",
      "geometry": {
        "type": "Point",
        "coordinates": [
          12.486944,
          41.888333
        ]
      },
      "properties": {
        "locationID": "npt001",
        "Location/feature name (incl. historical names)": "Palatine Hill",
        "COMPLETE": "FALSE",
        "Geometry type": "point",
        "Geography type": "feature",
        "Country": "Italy",
        "Region": "",
        "State/Province": "",
        "County": "",
        "City": "",
        "Neighborhood (incl. boroughs)": "",
        "Street address": "",
        "Notes": "",
        "Source": ""
      }
    },
    {
      "type": "Feature",
      "geometry": {
        "type": "Point",
        "coordinates": [
          1.725199,
          44.987241
        ]
      },
      "properties": {
        "locationID": "npt002",
        "Location/feature name (incl. historical names)": "La Chapelle-aux-Saints cave",
        "COMPLETE": "FALSE",
        "Geometry type": "point",
        "Geography type": "feature",
        "Country": "France",
        "Region": "",
        "State/Province": "",
        "County": "",
        "City": "",
        "Neighborhood (incl. boroughs)": "",
        "Street address": "",
        "Notes": "",
        "Source": ""
      }
    },
    {
      "type": "Feature",
      "geometry": {
        "type": "Point",
        "coordinates": [
          35.3692844587276,
          -2.96602373453159
        ]
      },
      "properties": {
        "locationID": "npt003",
        "Location/feature name (incl. historical names)": "Olduvai Gorge",
        "COMPLETE": "FALSE",
        "Geometry type": "point",
        "Geography type": "feature",
        "Country": "Tanzania",
        "Region": "",
        "State/Province": "",
        "County": "",
        "City": "",
        "Neighborhood (incl. boroughs)": "",
        "Street address": "",
        "Notes": "",
        "Source": ""
      }
    }
  ]
}
