{
	"type": "FeatureCollection",
	"features": [
		{
			"type": "Feature",
			"geometry": {
				"type": "Point",
				"coordinates": [
					-90.1575,
					38.625
				]
			},
			"properties": {
				"locationID": "cty001",
				"Location/feature name (incl. historical names)": "East Saint Louis",
				"COMPLETE": "FALSE",
				"Geometry type": "point",
				"Geography type": "city",
				"Country": "USA",
				"Region": "",
				"State/Province": "Illinois",
				"County": "",
				"City": "East Saint Louis",
				"Neighborhood (incl. boroughs)": " ",
				"Street address": "",
				"Notes": "",
				"Source": "",
				"songs": [
					{
						"title": "Color in Your Cheeks",
						"album": "All Hail West Texas",
						"albums": [
							"All Hail West Texas"
						],
						"lyric": "\"And they came from Zimbabwe, or from Soviet Georgia / East Saint Louis, or from Paris, or they lived across the street\""
					},
					{
						"title": "Clean Slate",
						"album": "Jenny from Thebes",
						"albums": [
							"Jenny from Thebes"
						],
						"lyric": "\"One from East St. Louis with a scar beneath his eye\""
					}
				]
			}
		},
		{
			"type": "Feature",
			"geometry": {
				"type": "Point",
				"coordinates": [
					-90.35277778,
					40.95222222
				]
			},
			"properties": {
				"locationID": "cty002",
				"Location/feature name (incl. historical names)": "Galesburg",
				"COMPLETE": "FALSE",
				"Geometry type": "point",
				"Geography type": "city",
				"Country": "USA",
				"Region": "",
				"State/Province": "Illinois",
				"County": "",
				"City": "Galesburg",
				"Neighborhood (incl. boroughs)": "",
				"Street address": "",
				"Notes": "",
				"Source": "",
				"songs": [
					{
						"title": "Weekend in Western Illinois",
						"album": "Full Force Galesburg",
						"albums": [
							"Full Force Galesburg"
						],
						"lyric": "\"And we love these dogs that roll on the lawns here in Galesburg / Because they seem to know something nobody else knows\""
					}
				]
			}
		},
		{
			"type": "Feature",
			"geometry": {
				"type": "Point",
				"coordinates": [
					31.23583333,
					30.04444444
				]
			},
			"properties": {
				"locationID": "cty003",
				"Location/feature name (incl. historical names)": "Cairo",
				"COMPLETE": "FALSE",
				"Geometry type": "point",
				"Geography type": "city",
				"Country": "USA",
				"Region": "",
				"State/Province": "Georgia",
				"County": "",
				"City": "Cairo",
				"Neighborhood (incl. boroughs)": "",
				"Street address": "",
				"Notes": "",
				"Source": "",
				"songs": [
					{
						"title": "Alpha Omega",
						"album": "Our Salvation Is in Hand",
						"albums": [
							"Our Salvation Is in Hand"
						],
						"lyric": "\"I had boiled peanuts for breakfast from Cairo, Georgia\""
					}
				]
			}
		},
		{
			"type": "Feature",
			"geometry": {
				"type": "Point",
				"coordinates": [
					-87.62777778,
					41.88194444
				]
			},
			"properties": {
				"locationID": "cty004",
				"Location/feature name (incl. historical names)": "Chicago",
				"COMPLETE": "FALSE",
				"Geometry type": "point",
				"Geography type": "city",
				"Country": "USA",
				"Region": "",
				"State/Province": "Illinois",
				"County": "",
				"City": "Chicago",
				"Neighborhood (incl. boroughs)": "",
				"Street address": "",
				"Notes": "",
				"Source": "",
				"songs": [
					{
						"title": "Move (Chicago 196X)",
						"album": "Taboo VI: The Homecoming",
						"albums": [
							"Taboo VI: The Homecoming"
						],
						"lyric": ""
					},
					{
						"title": "Snakeheads",
						"album": "Palmcorder Yajna EP",
						"albums": [
							"Palmcorder Yajna EP"
						],
						"lyric": "\"Me and Lee Chong from Chicago in a U-Haul\""
					},
					{
						"title": "We Do It Different on the West Coast",
						"album": "Goths",
						"albums": [
							"Goths"
						],
						"lyric": "\"I heard some good things from sone friends about Chicago / I gotta see with my own eyes about Chicago\""
					}
				]
			}
		},
		{
			"type": "Feature",
			"geometry": {
				"type": "Point",
				"coordinates": [
					-82.54583333,
					27.7625
				]
			},
			"properties": {
				"locationID": "cty005",
				"Location/feature name (incl. historical names)": "Tampa Bay",
				"COMPLETE": "FALSE",
				"Geometry type": "point",
				"Geography type": "city",
				"Country": "USA",
				"Region": "",
				"State/Province": "Florida",
				"County": "",
				"City": "Tampa Bay",
				"Neighborhood (incl. boroughs)": "",
				"Street address": "",
				"Notes": "",
				"Source": "",
				"songs": [
					{
						"title": "The Alphonse Mambo",
						"album": "The Coroner's Gambit",
						"albums": [
							"The Coroner's Gambit"
						],
						"lyric": "\"And it's gonna be just you and me today / Waiting for the other shoe to drop in Tampa Bay\""
					}
				]
			}
		},
		{
			"type": "Feature",
			"geometry": {
				"type": "Point",
				"coordinates": [
					-84.39,
					33.74888889
				]
			},
			"properties": {
				"locationID": "cty006",
				"Location/feature name (incl. historical names)": "Atlanta",
				"COMPLETE": "FALSE",
				"Geometry type": "point",
				"Geography type": "city",
				"Country": "USA",
				"Region": "",
				"State/Province": "Georgia",
				"County": "",
				"City": "Atlanta",
				"Neighborhood (incl. boroughs)": "",
				"Street address": "",
				"Notes": "",
				"Source": "",
				"songs": [
					{
						"title": "Jaipur",
						"album": "The Coroner's Gambit",
						"albums": [
							"The Coroner's Gambit"
						],
						"lyric": "\"I am coming to Atlanta again\""
					}
				]
			}
		},
		{
			"type": "Feature",
			"geometry": {
				"type": "Point",
				"coordinates": [
					-1.35,
					54.35
				]
			},
			"properties": {
				"locationID": "cty007",
				"Location/feature name (incl. historical names)": "Kirby Sigston",
				"COMPLETE": "FALSE",
				"Geometry type": "point",
				"Geography type": "city",
				"Country": "England",
				"Region": "",
				"State/Province": "",
				"County": "",
				"City": "Kirby Sigston",
				"Neighborhood (incl. boroughs)": "",
				"Street address": "",
				"Notes": "",
				"Source": "",
				"songs": [
					{
						"title": "Going to Kirby Sigston",
						"album": "Ghana",
						"albums": [
							"Ghana"
						],
						"lyric": "[title]"
					}
				]
			}
		},
		{
			"type": "Feature",
			"geometry": {
				"type": "Point",
				"coordinates": [
					-1.54361111,
					53.7975
				]
			},
			"properties": {
				"locationID": "cty008",
				"Location/feature name (incl. historical names)": "Leeds",
				"COMPLETE": "FALSE",
				"Geometry type": "point",
				"Geography type": "city",
				"Country": "England",
				"Region": "",
				"State/Province": "",
				"County": "",
				"City": "Leeds",
				"Neighborhood (incl. boroughs)": "",
				"Street address": "",
				"Notes": "",
				"Source": "",
				"songs": [
					{
						"title": "Andrew Eldritch is Moving Back to Leeds",
						"album": "Goths",
						"albums": [
							"Goths"
						],
						"lyric": "\"Nobody ever gets away / Even the best of us come back someday / To the unmarked rooms where the dry dust breeds / Andrew Eldritch is moving back to Leeds\""
					}
				]
			}
		},
		{
			"type": "Feature",
			"geometry": {
				"type": "Point",
				"coordinates": [
					121.47472222,
					31.22861111
				]
			},
			"properties": {
				"locationID": "cty009",
				"Location/feature name (incl. historical names)": "Shanghai",
				"COMPLETE": "FALSE",
				"Geometry type": "point",
				"Geography type": "city",
				"Country": "China",
				"Region": "",
				"State/Province": "",
				"County": "",
				"City": "Shanghai",
				"Neighborhood (incl. boroughs)": "",
				"Street address": "",
				"Notes": "",
				"Source": "",
				"songs": [
					{
						"title": "The Lady from Shanghai",
						"album": "Songs for Petronius",
						"albums": [
							"Songs for Petronius"
						],
						"lyric": "[title]"
					}
				]
			}
		},
		{
			"type": "Feature",
			"geometry": {
				"type": "Point",
				"coordinates": [
					-2.5975,
					51.45361111
				]
			},
			"properties": {
				"locationID": "cty010",
				"Location/feature name (incl. historical names)": "Bristol",
				"COMPLETE": "FALSE",
				"Geometry type": "point",
				"Geography type": "city",
				"Country": "England",
				"Region": "",
				"State/Province": "",
				"County": "",
				"City": "Bristol",
				"Neighborhood (incl. boroughs)": "",
				"Street address": "",
				"Notes": "",
				"Source": "",
				"songs": [
					{
						"title": "Going to Bristol",
						"album": "Zopilote Machine",
						"albums": [
							"Zopilote Machine"
						],
						"lyric": "\"I knew you were leaving / I knew you were going to Bristol\""
					}
				]
			}
		},
		{
			"type": "Feature",
			"geometry": {
				"type": "Point",
				"coordinates": [
					-73.55416667,
					45.50888889
				]
			},
			"properties": {
				"locationID": "cty011",
				"Location/feature name (incl. historical names)": "Montreal",
				"COMPLETE": "FALSE",
				"Geometry type": "point",
				"Geography type": "city",
				"Country": "Canada",
				"Region": "",
				"State/Province": "",
				"County": "",
				"City": "Montreal",
				"Neighborhood (incl. boroughs)": "",
				"Street address": "",
				"Notes": "",
				"Source": "https://datahub.io/core/geo-countries#resource-countries",
				"songs": [
					{
						"title": "Earth Air Water Trees",
						"album": "Tropical Depression",
						"albums": [
							"Tropical Depression"
						],
						"lyric": "\"And the light was bright and clear and cold / Over eastern Montreal\""
					}
				]
			}
		},
		{
			"type": "Feature",
			"geometry": {
				"type": "Point",
				"coordinates": [
					-70.666667,
					-33.45
				]
			},
			"properties": {
				"locationID": "cty012",
				"Location/feature name (incl. historical names)": "Santiago",
				"COMPLETE": "FALSE",
				"Geometry type": "point",
				"Geography type": "city",
				"Country": "Chile",
				"Region": "",
				"State/Province": "",
				"County": "",
				"City": "Santiago",
				"Neighborhood (incl. boroughs)": "",
				"Street address": "",
				"Notes": "",
				"Source": "",
				"songs": [
					{
						"title": "Going to Santiago",
						"album": "Transmissions to Horace",
						"albums": [
							"Transmissions to Horace"
						],
						"lyric": "[title]"
					}
				]
			}
		},
		{
			"type": "Feature",
			"geometry": {
				"type": "Point",
				"coordinates": [
					13.045,
					47.8
				]
			},
			"properties": {
				"locationID": "cty013",
				"Location/feature name (incl. historical names)": "Salzburg",
				"COMPLETE": "FALSE",
				"Geometry type": "point",
				"Geography type": "city",
				"Country": "Austria",
				"Region": "",
				"State/Province": "",
				"County": "",
				"City": "Salzburg",
				"Neighborhood (incl. boroughs)": "",
				"Street address": "",
				"Notes": "",
				"Source": "",
				"songs": [
					{
						"title": "They Are Stone Swallowers",
						"album": "Get Lonely (Japanese release)",
						"albums": [
							"Get Lonely (Japanese release)"
						],
						"lyric": "\"You were headed down to Salzburg for the night / All my hair was turning white\""
					}
				]
			}
		},
		{
			"type": "Feature",
			"geometry": {
				"type": "Point",
				"coordinates": [
					-74.07222222,
					4.71111111
				]
			},
			"properties": {
				"locationID": "cty014",
				"Location/feature name (incl. historical names)": "Bogot\u00e1",
				"COMPLETE": "FALSE",
				"Geometry type": "point",
				"Geography type": "city",
				"Country": "Colombia",
				"Region": "",
				"State/Province": "",
				"County": "",
				"City": "Bogot\u00e1",
				"Neighborhood (incl. boroughs)": "",
				"Street address": "",
				"Notes": "",
				"Source": "https://datahub.io/core/geo-countries#resource-countries",
				"songs": [
					{
						"title": "Going to Bogot\u00e1",
						"album": "Nothing for Juice",
						"albums": [
							"Nothing for Juice"
						],
						"lyric": "\"And as the sun rises over Colombia / I know we're done for\""
					}
				]
			}
		},
		{
			"type": "Feature",
			"geometry": {
				"type": "Point",
				"coordinates": [
					19.05138889,
					47.4925
				]
			},
			"properties": {
				"locationID": "cty015",
				"Location/feature name (incl. historical names)": "Budapest",
				"COMPLETE": "FALSE",
				"Geometry type": "point",
				"Geography type": "city",
				"Country": "Hungary",
				"Region": "",
				"State/Province": "",
				"County": "",
				"City": "Budapest",
				"Neighborhood (incl. boroughs)": "",
				"Street address": "",
				"Notes": "",
				"Source": "",
				"songs": [
					{
						"title": "Going to Hungary",
						"album": "Tropical Depression",
						"albums": [
							"Tropical Depression"
						],
						"lyric": "\"We touched down in Budapest / Headed straight for the motel room and got undressed\""
					}
				]
			}
		},
		{
			"type": "Feature",
			"geometry": {
				"type": "Point",
				"coordinates": [
					-21.94,
					64.146667
				]
			},
			"properties": {
				"locationID": "cty016",
				"Location/feature name (incl. historical names)": "Reykjavik",
				"COMPLETE": "FALSE",
				"Geometry type": "point",
				"Geography type": "city",
				"Country": "Iceland",
				"Region": "",
				"State/Province": "",
				"County": "",
				"City": "Reykjavik",
				"Neighborhood (incl. boroughs)": "",
				"Street address": "",
				"Notes": "",
				"Source": "https://datahub.io/core/geo-countries#resource-countries",
				"songs": [
					{
						"title": "Going to Reykjavik",
						"album": "Nothing for Juice",
						"albums": [
							"Nothing for Juice"
						],
						"lyric": "[title]"
					}
				]
			}
		},
		{
			"type": "Feature",
			"geometry": {
				"type": "Point",
				"coordinates": [
					10,
					53.55
				]
			},
			"properties": {
				"locationID": "cty017",
				"Location/feature name (incl. historical names)": "Hamburg",
				"COMPLETE": "FALSE",
				"Geometry type": "point",
				"Geography type": "city",
				"Country": "Germany",
				"Region": "",
				"State/Province": "",
				"County": "",
				"City": "Hamburg",
				"Neighborhood (incl. boroughs)": "",
				"Street address": "",
				"Notes": "",
				"Source": "",
				"songs": [
					{
						"title": "Shirtless in Hamburg",
						"album": "Marsh Witch Visions EP",
						"albums": [
							"Marsh Witch Visions EP"
						],
						"lyric": "[title]"
					}
				]
			}
		},
		{
			"type": "Feature",
			"geometry": {
				"type": "Point",
				"coordinates": [
					12.375,
					51.34
				]
			},
			"properties": {
				"locationID": "cty018",
				"Location/feature name (incl. historical names)": "Leipzig",
				"COMPLETE": "FALSE",
				"Geometry type": "point",
				"Geography type": "city",
				"Country": "Germany",
				"Region": "",
				"State/Province": "",
				"County": "",
				"City": "Leipzig",
				"Neighborhood (incl. boroughs)": "",
				"Street address": "",
				"Notes": "",
				"Source": "",
				"songs": [
					{
						"title": "Andrew Eldritch is Moving Back to Leeds",
						"album": "Goths",
						"albums": [
							"Goths"
						],
						"lyric": "\"And an old army backpack / From the second World War / From a Leipzig second-hand store\""
					}
				]
			}
		},
		{
			"type": "Feature",
			"geometry": {
				"type": "Point",
				"coordinates": [
					13.405,
					52.52
				]
			},
			"properties": {
				"locationID": "cty019",
				"Location/feature name (incl. historical names)": "Berlin",
				"COMPLETE": "FALSE",
				"Geometry type": "point",
				"Geography type": "city",
				"Country": "Germany",
				"Region": "",
				"State/Province": "",
				"County": "",
				"City": "Berlin",
				"Neighborhood (incl. boroughs)": "",
				"Street address": "",
				"Notes": "",
				"Source": "",
				"songs": [
					{
						"title": "We Do It Different on the West Coast",
						"album": "Goths",
						"albums": [
							"Goths"
						],
						"lyric": "\"It's practically a lifestyle in Berlin\""
					}
				]
			}
		},
		{
			"type": "Feature",
			"geometry": {
				"type": "Point",
				"coordinates": [
					13.74,
					51.05
				]
			},
			"properties": {
				"locationID": "cty020",
				"Location/feature name (incl. historical names)": "Dresden",
				"COMPLETE": "FALSE",
				"Geometry type": "point",
				"Geography type": "city",
				"Country": "Germany",
				"Region": "",
				"State/Province": "",
				"County": "",
				"City": "Dresden",
				"Neighborhood (incl. boroughs)": "",
				"Street address": "",
				"Notes": "",
				"Source": "",
				"songs": [
					{
						"title": "Spent Gladiator 2",
						"album": "Transcendental Youth",
						"albums": [
							"Transcendental Youth"
						],
						"lyric": "\"Like the clock that ticks in Dresden / When the whole town's been destroyed\""
					}
				]
			}
		},
		{
			"type": "Feature",
			"geometry": {
				"type": "Point",
				"coordinates": [
					-0.1275,
					51.50722222
				]
			},
			"properties": {
				"locationID": "cty021",
				"Location/feature name (incl. historical names)": "London",
				"COMPLETE": "FALSE",
				"Geometry type": "point",
				"Geography type": "city",
				"Country": "England",
				"Region": "",
				"State/Province": "",
				"County": "",
				"City": "London",
				"Neighborhood (incl. boroughs)": "",
				"Street address": "",
				"Notes": "",
				"Source": "",
				"songs": [
					{
						"title": "The Autopsy Garland",
						"album": "All Eternals Deck",
						"albums": [
							"All Eternals Deck"
						],
						"lyric": "\"Look west from London / down to old Hollywood\""
					},
					{
						"title": "Andrew Eldritch is Moving Back to Leeds",
						"album": "Goths",
						"albums": [
							"Goths"
						],
						"lyric": "\"Ridin' Lotus Sevens through the London Streets one day\""
					}
				]
			}
		},
		{
			"type": "Feature",
			"geometry": {
				"type": "Point",
				"coordinates": [
					2.35222222,
					48.85666667
				]
			},
			"properties": {
				"locationID": "cty022",
				"Location/feature name (incl. historical names)": "Paris",
				"COMPLETE": "FALSE",
				"Geometry type": "point",
				"Geography type": "city",
				"Country": "France",
				"Region": "",
				"State/Province": "",
				"County": "",
				"City": "Paris",
				"Neighborhood (incl. boroughs)": "",
				"Street address": "",
				"Notes": "",
				"Source": "",
				"songs": [
					{
						"title": "Color in Your Cheeks",
						"album": "All Hail West Texas",
						"albums": [
							"All Hail West Texas"
						],
						"lyric": "\"And they came from Zimbabwe, or from Soviet Georgia / East Saint Louis, or from Paris, or they lived across the street\""
					}
				]
			}
		},
		{
			"type": "Feature",
			"geometry": {
				"type": "Point",
				"coordinates": [
					13.19138889,
					32.88722222
				]
			},
			"properties": {
				"locationID": "cty023",
				"Location/feature name (incl. historical names)": "Tripoli",
				"COMPLETE": "FALSE",
				"Geometry type": "point",
				"Geography type": "city",
				"Country": "Libya",
				"Region": "",
				"State/Province": "",
				"County": "",
				"City": "Tripoli",
				"Neighborhood (incl. boroughs)": "",
				"Street address": "",
				"Notes": "",
				"Source": "https://datahub.io/core/geo-countries#resource-countries",
				"songs": [
					{
						"title": "Jaipur",
						"album": "The Coroner's Gambit",
						"albums": [
							"The Coroner's Gambit"
						],
						"lyric": "\"I am the white sky high over Tripoli\""
					},
					{
						"title": "Commandante",
						"album": "Devil in the Shortwave",
						"albums": [
							"Devil in the Shortwave"
						],
						"lyric": "\"And I'm gonna send my belongings all to Tripoli\""
					}
				]
			}
		},
		{
			"type": "Feature",
			"geometry": {
				"type": "Point",
				"coordinates": [
					-86.8475,
					21.16055556
				]
			},
			"properties": {
				"locationID": "cty024",
				"Location/feature name (incl. historical names)": "Cancun",
				"COMPLETE": "FALSE",
				"Geometry type": "point",
				"Geography type": "city",
				"Country": "Mexico",
				"Region": "",
				"State/Province": "",
				"County": "",
				"City": "Cancun",
				"Neighborhood (incl. boroughs)": "",
				"Street address": "",
				"Notes": "",
				"Source": "https://datahub.io/core/geo-countries#resource-countries",
				"songs": [
					{
						"title": "Insurance Fraud #2",
						"album": "The Coroner's Gambit",
						"albums": [
							"The Coroner's Gambit"
						],
						"lyric": "\"Dreams of retirement in Cancun / Burning ever brighter\""
					}
				]
			}
		},
		{
			"type": "Feature",
			"geometry": {
				"type": "Point",
				"coordinates": [
					35.22555556,
					31.77888889
				]
			},
			"properties": {
				"locationID": "cty025",
				"Location/feature name (incl. historical names)": "Jerusalem",
				"COMPLETE": "FALSE",
				"Geometry type": "point",
				"Geography type": "city",
				"Country": "Israel",
				"Region": "",
				"State/Province": "",
				"County": "",
				"City": "Jerusalem",
				"Neighborhood (incl. boroughs)": "",
				"Street address": "",
				"Notes": "Also referred to as Salem (biblical) in one song)",
				"Source": "",
				"songs": [
					{
						"title": "This Year",
						"album": "Dilaudid EP",
						"albums": [
							"Dilaudid EP"
						],
						"lyric": "\"There will be feasting and dancing / In Jerusalem next year / I am going to make it through this year if it kills me\""
					},
					{
						"title": "New Zion",
						"album": "Heretic Pride",
						"albums": [
							"Heretic Pride"
						],
						"lyric": "\"High priest of Salem in his robes / Ranting out the coming of the day\""
					}
				]
			}
		},
		{
			"type": "Feature",
			"geometry": {
				"type": "Point",
				"coordinates": [
					-76.79305556,
					17.97138889
				]
			},
			"properties": {
				"locationID": "cty026",
				"Location/feature name (incl. historical names)": "Kingston",
				"COMPLETE": "FALSE",
				"Geometry type": "point",
				"Geography type": "city",
				"Country": "Jamaica",
				"Region": "",
				"State/Province": "",
				"County": "",
				"City": "Kingston",
				"Neighborhood (incl. boroughs)": "",
				"Street address": "",
				"Notes": "",
				"Source": "",
				"songs": [
					{
						"title": "Going to Jamaica",
						"album": "Taking the Dative",
						"albums": [
							"Taking the Dative"
						],
						"lyric": "\"And what flowers there were around Kingston are blue / I ripped them up from the dry soil and draped them over you\""
					},
					{
						"title": "Song for Dennis Brown",
						"album": "The Sunset Tree",
						"albums": [
							"The Sunset Tree"
						],
						"lyric": "\"On the day that Dennis Brown's lung collapsed / Spring rain was misting down on Kingston\""
					}
				]
			}
		},
		{
			"type": "Feature",
			"geometry": {
				"type": "Point",
				"coordinates": [
					72.8775,
					19.07611111
				]
			},
			"properties": {
				"locationID": "cty027",
				"Location/feature name (incl. historical names)": "Bombay",
				"COMPLETE": "FALSE",
				"Geometry type": "point",
				"Geography type": "city",
				"Country": "India",
				"Region": "",
				"State/Province": "",
				"County": "",
				"City": "Mumbai",
				"Neighborhood (incl. boroughs)": "",
				"Street address": "",
				"Notes": "",
				"Source": "https://datahub.io/core/geo-countries#resource-countries",
				"songs": [
					{
						"title": "Yoga",
						"album": "Devil in the Shortwave",
						"albums": [
							"Devil in the Shortwave"
						],
						"lyric": "\"And the lie ran off and hit itself in the alleys / All across Bombay\""
					}
				]
			}
		},
		{
			"type": "Feature",
			"geometry": {
				"type": "Point",
				"coordinates": [
					106.8275,
					-6.175
				]
			},
			"properties": {
				"locationID": "cty028",
				"Location/feature name (incl. historical names)": "Jakarta",
				"COMPLETE": "FALSE",
				"Geometry type": "point",
				"Geography type": "city",
				"Country": "Indonesia",
				"Region": "",
				"State/Province": "",
				"County": "",
				"City": "Jakarta",
				"Neighborhood (incl. boroughs)": "",
				"Street address": "",
				"Notes": "",
				"Source": "",
				"songs": [
					{
						"title": "Narakaloka",
						"album": "New Asian Cinema",
						"albums": [
							"New Asian Cinema"
						],
						"lyric": "\"I've got cinnamon from Jakarta / For making French toast\""
					}
				]
			}
		},
		{
			"type": "Feature",
			"geometry": {
				"type": "Point",
				"coordinates": [
					75.8,
					26.9
				]
			},
			"properties": {
				"locationID": "cty029",
				"Location/feature name (incl. historical names)": "Jaipur",
				"COMPLETE": "FALSE",
				"Geometry type": "point",
				"Geography type": "city",
				"Country": "India",
				"Region": "",
				"State/Province": "",
				"County": "",
				"City": "Jaipur",
				"Neighborhood (incl. boroughs)": "",
				"Street address": "",
				"Notes": "",
				"Source": "",
				"songs": [
					{
						"title": "Jaipur",
						"album": "The Coroner's Gambit",
						"albums": [
							"The Coroner's Gambit"
						],
						"lyric": "\"Yeah I came to the gates of the fabled pink city / Hungry and tired and cold\""
					}
				]
			}
		},
		{
			"type": "Feature",
			"geometry": {
				"type": "Point",
				"coordinates": [
					88.37,
					22.5675
				]
			},
			"properties": {
				"locationID": "cty030",
				"Location/feature name (incl. historical names)": "Calcutta",
				"COMPLETE": "FALSE",
				"Geometry type": "point",
				"Geography type": "city",
				"Country": "India",
				"Region": "",
				"State/Province": "",
				"County": "",
				"City": "Kolkata",
				"Neighborhood (incl. boroughs)": "",
				"Street address": "",
				"Notes": "",
				"Source": "https://datahub.io/core/geo-countries#resource-countries",
				"songs": [
					{
						"title": "We Were Patriots",
						"album": "The Coroner's Gambit",
						"albums": [
							"The Coroner's Gambit"
						],
						"lyric": "\"Clear sky over Calcutta\""
					}
				]
			}
		},
		{
			"type": "Feature",
			"geometry": {
				"type": "Point",
				"coordinates": [
					126.99,
					37.56
				]
			},
			"properties": {
				"locationID": "cty031",
				"Location/feature name (incl. historical names)": "Seoul",
				"COMPLETE": "FALSE",
				"Geometry type": "point",
				"Geography type": "city",
				"Country": "South Korea",
				"Region": "",
				"State/Province": "",
				"County": "",
				"City": "Seoul",
				"Neighborhood (incl. boroughs)": "",
				"Street address": "",
				"Notes": "",
				"Source": "",
				"songs": [
					{
						"title": "Downtown Seoul",
						"album": "Sweden",
						"albums": [
							"Sweden"
						],
						"lyric": "\"I saw you coming across the square / And a white bird broke the dark Korean sky\""
					}
				]
			}
		},
		{
			"type": "Feature",
			"geometry": {
				"type": "Point",
				"coordinates": [
					18.06861111,
					59.32944444
				]
			},
			"properties": {
				"locationID": "cty032",
				"Location/feature name (incl. historical names)": "Stockholm",
				"COMPLETE": "FALSE",
				"Geometry type": "point",
				"Geography type": "city",
				"Country": "Sweden",
				"Region": "",
				"State/Province": "",
				"County": "",
				"City": "Stockholm",
				"Neighborhood (incl. boroughs)": "",
				"Street address": "",
				"Notes": "",
				"Source": "https://datahub.io/core/geo-countries#resource-countries",
				"songs": [
					{
						"title": "They Are Stone Swallowers",
						"album": "Get Lonely (Japanese release)",
						"albums": [
							"Get Lonely (Japanese release)"
						],
						"lyric": "\"You went away to Stockholm for a week / You came back with some scratch-mark on your cheeks\""
					}
				]
			}
		},
		{
			"type": "Feature",
			"geometry": {
				"type": "Point",
				"coordinates": [
					21.01111111,
					52.23
				]
			},
			"properties": {
				"locationID": "cty033",
				"Location/feature name (incl. historical names)": "Warsaw",
				"COMPLETE": "FALSE",
				"Geometry type": "point",
				"Geography type": "city",
				"Country": "Poland",
				"Region": "",
				"State/Province": "",
				"County": "",
				"City": "Warsaw",
				"Neighborhood (incl. boroughs)": "",
				"Street address": "",
				"Notes": "",
				"Source": "",
				"songs": [
					{
						"title": "I Corinthians 13: 8-10",
						"album": "Nothing for Juice",
						"albums": [
							"Nothing for Juice"
						],
						"lyric": "\"In Warsaw in 1939 / It was alright just to be alive\""
					}
				]
			}
		},
		{
			"type": "Feature",
			"geometry": {
				"type": "Point",
				"coordinates": [
					44.51472222,
					48.70861111
				]
			},
			"properties": {
				"locationID": "cty034",
				"Location/feature name (incl. historical names)": "Stalingrad",
				"COMPLETE": "FALSE",
				"Geometry type": "point",
				"Geography type": "city",
				"Country": "Russia",
				"Region": "",
				"State/Province": "",
				"County": "",
				"City": "Volgograd",
				"Neighborhood (incl. boroughs)": "",
				"Street address": "",
				"Notes": "",
				"Source": "",
				"songs": [
					{
						"title": "Evening in Stalingrad",
						"album": "Full Force Galesburg",
						"albums": [
							"Full Force Galesburg"
						],
						"lyric": "[title]"
					}
				]
			}
		},
		{
			"type": "Feature",
			"geometry": {
				"type": "Point",
				"coordinates": [
					5.12166667,
					52.09083333
				]
			},
			"properties": {
				"locationID": "cty035",
				"Location/feature name (incl. historical names)": "Utrecht",
				"COMPLETE": "FALSE",
				"Geometry type": "point",
				"Geography type": "city",
				"Country": "Netherlands",
				"Region": "",
				"State/Province": "",
				"County": "",
				"City": "Utrecht",
				"Neighborhood (incl. boroughs)": "",
				"Street address": "",
				"Notes": "",
				"Source": "https://datahub.io/core/geo-countries#resource-countries",
				"songs": [
					{
						"title": "Going to Utrecht",
						"album": "Nine Black Poppies",
						"albums": [
							"Nine Black Poppies"
						],
						"lyric": "[title]"
					}
				]
			}
		},
		{
			"type": "Feature",
			"geometry": {
				"type": "Point",
				"coordinates": [
					-77.0375,
					-12.06
				]
			},
			"properties": {
				"locationID": "cty036",
				"Location/feature name (incl. historical names)": "Lima",
				"COMPLETE": "FALSE",
				"Geometry type": "point",
				"Geography type": "city",
				"Country": "Peru",
				"Region": "",
				"State/Province": "",
				"County": "",
				"City": "Lima",
				"Neighborhood (incl. boroughs)": "",
				"Street address": "",
				"Notes": "",
				"Source": "",
				"songs": [
					{
						"title": "Sendero Luminoso Verdadero",
						"album": "Beautiful Rat Sunset",
						"albums": [
							"Beautiful Rat Sunset"
						],
						"lyric": "\"I remember Lima, I remember the good life\""
					}
				]
			}
		},
		{
			"type": "Feature",
			"geometry": {
				"type": "Point",
				"coordinates": [
					-107.39388889,
					24.80694444
				]
			},
			"properties": {
				"locationID": "cty037",
				"Location/feature name (incl. historical names)": "Culiac\u00e1n",
				"COMPLETE": "FALSE",
				"Geometry type": "point",
				"Geography type": "city",
				"Country": "Mexico",
				"Region": "",
				"State/Province": "",
				"County": "",
				"City": "Culiac\u00e1n",
				"Neighborhood (incl. boroughs)": "",
				"Street address": "",
				"Notes": "",
				"Source": "",
				"songs": [
					{
						"title": "Ezekiel 7 and the Permanent Efficacy of Grace",
						"album": "The Life of the World to Come",
						"albums": [
							"The Life of the World to Come"
						],
						"lyric": "\"I had his arms tied up behind him / We were together all day / Maybe make Culiac\u00e1n by sunset / Try to anyway\""
					}
				]
			}
		},
		{
			"type": "Feature",
			"geometry": {
				"type": "Point",
				"coordinates": [
					-115.46777778,
					32.66333333
				]
			},
			"properties": {
				"locationID": "cty038",
				"Location/feature name (incl. historical names)": "Mexicali",
				"COMPLETE": "FALSE",
				"Geometry type": "point",
				"Geography type": "city",
				"Country": "Mexico",
				"Region": "",
				"State/Province": "",
				"County": "",
				"City": "Mexicali",
				"Neighborhood (incl. boroughs)": "",
				"Street address": "",
				"Notes": "",
				"Source": "https://datahub.io/core/geo-countries#resource-countries",
				"songs": [
					{
						"title": "Color in Your Cheeks",
						"album": "All Hail West Texas",
						"albums": [
							"All Hail West Texas"
						],
						"lyric": "\"He drove in from Mexicali, no worse for wear / Money to burn, time to kill\""
					}
				]
			}
		},
		{
			"type": "Feature",
			"geometry": {
				"type": "Point",
				"coordinates": [
					10.3233,
					36.8528
				]
			},
			"properties": {
				"locationID": "cty039",
				"Location/feature name (incl. historical names)": "Carthage",
				"COMPLETE": "FALSE",
				"Geometry type": "point",
				"Geography type": "city",
				"Country": "Tunisia",
				"Region": "",
				"State/Province": "",
				"County": "",
				"City": "Carthage",
				"Neighborhood (incl. boroughs)": "",
				"Street address": "",
				"Notes": "",
				"Source": "",
				"songs": [
					{
						"title": "Last Gasp at Calama",
						"album": "Songs for Pierre Chuvin",
						"albums": [
							"Songs for Pierre Chuvin"
						],
						"lyric": "\"They'll do what they were gonna do anyway / But Carthage may rise again one day\""
					}
				]
			}
		},
		{
			"type": "Feature",
			"geometry": {
				"type": "Point",
				"coordinates": [
					36.3893085,
					35.4201676
				]
			},
			"properties": {
				"locationID": "cty040",
				"Location/feature name (incl. historical names)": "Aulon",
				"COMPLETE": "FALSE",
				"Geometry type": "point",
				"Geography type": "city",
				"Country": "Syria",
				"Region": "",
				"State/Province": "",
				"County": "",
				"City": "Apamea",
				"Neighborhood (incl. boroughs)": "",
				"Street address": "",
				"Notes": "",
				"Source": "",
				"songs": [
					{
						"title": "Aulon Raid",
						"album": "Songs for Pierre Chuvin",
						"albums": [
							"Songs for Pierre Chuvin"
						],
						"lyric": "[title]"
					}
				]
			}
		},
		{
			"type": "Feature",
			"geometry": {
				"type": "Point",
				"coordinates": [
					7.430052,
					36.467313
				]
			},
			"properties": {
				"locationID": "cty041",
				"Location/feature name (incl. historical names)": "Calama",
				"COMPLETE": "FALSE",
				"Geometry type": "point",
				"Geography type": "city",
				"Country": "Algeria",
				"Region": "",
				"State/Province": "",
				"County": "",
				"City": "Guelma",
				"Neighborhood (incl. boroughs)": "",
				"Street address": "",
				"Notes": "",
				"Source": "",
				"songs": [
					{
						"title": "Last Gasp at Calama",
						"album": "Songs for Pierre Chuvin",
						"albums": [
							"Songs for Pierre Chuvin"
						],
						"lyric": "[title]"
					}
				]
			}
		},
		{
			"type": "Feature",
			"geometry": {
				"type": "Point",
				"coordinates": [
					-122.328247,
					48.472081
				]
			},
			"properties": {
				"locationID": "cty042",
				"Location/feature name (incl. historical names)": "\"four hours north of Portland\"",
				"COMPLETE": "FALSE",
				"Geometry type": "point",
				"Geography type": "city",
				"Country": "USA",
				"Region": "",
				"State/Province": "Washington",
				"County": "",
				"City": "Burlington",
				"Neighborhood (incl. boroughs)": "",
				"Street address": "",
				"Notes": "",
				"Source": "",
				"songs": [
					{
						"title": "Harlem Roulette",
						"album": "Transcendental Youth",
						"albums": [
							"Transcendental Youth"
						],
						"lyric": "\"And four hours north of Portland, a radio fips on / And some no one from the future remembers that you're gone\""
					}
				]
			}
		},
		{
			"type": "Feature",
			"geometry": {
				"type": "Point",
				"coordinates": [
					-1.9025,
					52.48
				]
			},
			"properties": {
				"locationID": "cty044",
				"Location/feature name (incl. historical names)": "Birmingham, United Kingdom",
				"COMPLETE": "FALSE",
				"Geometry type": "point",
				"Geography type": "city",
				"Country": "United Kingdom",
				"Region": "",
				"State/Province": "",
				"County": "",
				"City": "Birmingham",
				"Neighborhood (incl. boroughs)": "",
				"Street address": "",
				"Notes": "",
				"Source": "",
				"songs": [
					{
						"title": "California Jam",
						"album": "Marsh Witch Visions EP",
						"albums": [
							"Marsh Witch Visions EP"
						],
						"lyric": "\"Me and the ghosts of Birmingham\""
					}
				]
			}
		},
		{
			"type": "Feature",
			"geometry": {
				"type": "Point",
				"coordinates": [
					-74.129089,
					40.857552
				]
			},
			"properties": {
				"locationID": "cty046",
				"Location/feature name (incl. historical names)": "Passaic",
				"COMPLETE": "FALSE",
				"Geometry type": "point",
				"Geography type": "city",
				"Country": "USA",
				"Region": "",
				"State/Province": "New Jersey",
				"County": "",
				"City": "Passaic",
				"Neighborhood (incl. boroughs)": "",
				"Street address": "",
				"Notes": "",
				"Source": "",
				"songs": [
					{
						"title": "Passaic, 1975",
						"album": "In League With Dragons",
						"albums": [
							"In League With Dragons"
						],
						"lyric": "\"Tonight Passaic, tomorrow the world\""
					}
				]
			}
		},
		{
			"type": "Feature",
			"geometry": {
				"type": "Point",
				"coordinates": [
					-74.763624,
					40.223841
				]
			},
			"properties": {
				"locationID": "cty047",
				"Location/feature name (incl. historical names)": "Trenton",
				"COMPLETE": "FALSE",
				"Geometry type": "point",
				"Geography type": "city",
				"Country": "USA",
				"Region": "",
				"State/Province": "New Jersey",
				"County": "",
				"City": "Trenton",
				"Neighborhood (incl. boroughs)": "",
				"Street address": "",
				"Notes": "",
				"Source": "",
				"songs": [
					{
						"title": "The Only Thing I Know",
						"album": "Orange Raja, Blood Royal",
						"albums": [
							"Orange Raja, Blood Royal"
						],
						"lyric": "\"When you came back from Trenton / All the sparkle was gone\""
					}
				]
			}
		},
		{
			"type": "Feature",
			"geometry": {
				"type": "Point",
				"coordinates": [
					-115.13638889,
					36.175
				]
			},
			"properties": {
				"locationID": "cty048",
				"Location/feature name (incl. historical names)": "Las Vegas",
				"COMPLETE": "FALSE",
				"Geometry type": "point",
				"Geography type": "city",
				"Country": "USA",
				"Region": "",
				"State/Province": "Nevada",
				"County": "",
				"City": "Las Vegas",
				"Neighborhood (incl. boroughs)": "",
				"Street address": "",
				"Notes": "",
				"Source": "",
				"songs": [
					{
						"title": "Star Dusting",
						"album": "Transmissions to Horace",
						"albums": [
							"Transmissions to Horace"
						],
						"lyric": "\"Toward the end of our first year in Las Vegas / You looked up from your little corner / And I saw that your face was getting a little brighter\""
					},
					{
						"title": "Fault Lines",
						"album": "All Hail West Texas",
						"albums": [
							"All Hail West Texas"
						],
						"lyric": "\"I'll drink to your health and you drink to mine / As we try to make the money we scored out in Vegas hold out for a while\""
					}
				]
			}
		},
		{
			"type": "Feature",
			"geometry": {
				"type": "Point",
				"coordinates": [
					-74.085024,
					40.817097
				]
			},
			"properties": {
				"locationID": "cty049",
				"Location/feature name (incl. historical names)": "East Rutherford",
				"COMPLETE": "FALSE",
				"Geometry type": "point",
				"Geography type": "city",
				"Country": "USA",
				"Region": "",
				"State/Province": "New Jersey",
				"County": "",
				"City": "East Rutherford",
				"Neighborhood (incl. boroughs)": "",
				"Street address": "",
				"Notes": "",
				"Source": "",
				"songs": [
					{
						"title": "Song for an Old Friend",
						"album": "The Wheel Method",
						"albums": [
							"The Wheel Method"
						],
						"lyric": "\"Good old East Rutherford three thousand miles away\""
					}
				]
			}
		},
		{
			"type": "Feature",
			"geometry": {
				"type": "Point",
				"coordinates": [
					-83.04583333,
					42.33138889
				]
			},
			"properties": {
				"locationID": "cty050",
				"Location/feature name (incl. historical names)": "Detroit",
				"COMPLETE": "FALSE",
				"Geometry type": "point",
				"Geography type": "city",
				"Country": "USA",
				"Region": "",
				"State/Province": "Michigan",
				"County": "",
				"City": "Detroit",
				"Neighborhood (incl. boroughs)": "",
				"Street address": "",
				"Notes": "",
				"Source": "",
				"songs": [
					{
						"title": "Fire Editorial",
						"album": "Beat the Champ",
						"albums": [
							"Beat the Champ"
						],
						"lyric": "\"Two blinded in Detroit!\""
					}
				]
			}
		},
		{
			"type": "Feature",
			"geometry": {
				"type": "Point",
				"coordinates": [
					-93.76416667,
					44.61888889
				]
			},
			"properties": {
				"locationID": "cty051",
				"Location/feature name (incl. historical names)": "Belle Plaine",
				"COMPLETE": "FALSE",
				"Geometry type": "point",
				"Geography type": "city",
				"Country": "USA",
				"Region": "",
				"State/Province": "Minnesota",
				"County": "",
				"City": "Belle Plaine",
				"Neighborhood (incl. boroughs)": "",
				"Street address": "",
				"Notes": "",
				"Source": "",
				"songs": [
					{
						"title": "Song for Sasha Banks",
						"album": "Song for Sasha Banks (single)",
						"albums": [
							"Song for Sasha Banks (single)"
						],
						"lyric": "\"We don't get cable in Belle Plaine\""
					}
				]
			}
		},
		{
			"type": "Feature",
			"geometry": {
				"type": "Point",
				"coordinates": [
					-68.7675,
					44.80305556
				]
			},
			"properties": {
				"locationID": "cty052",
				"Location/feature name (incl. historical names)": "Bangor",
				"COMPLETE": "FALSE",
				"Geometry type": "point",
				"Geography type": "city",
				"Country": "USA",
				"Region": "",
				"State/Province": "Maine",
				"County": "",
				"City": "Bangor",
				"Neighborhood (incl. boroughs)": "",
				"Street address": "",
				"Notes": "",
				"Source": "",
				"songs": [
					{
						"title": "Going to Bangor",
						"album": "You and What Army",
						"albums": [
							"You and What Army"
						],
						"lyric": "[title]"
					}
				]
			}
		},
		{
			"type": "Feature",
			"geometry": {
				"type": "Point",
				"coordinates": [
					-71.05777778,
					42.36027778
				]
			},
			"properties": {
				"locationID": "cty053",
				"Location/feature name (incl. historical names)": "Boston",
				"COMPLETE": "FALSE",
				"Geometry type": "point",
				"Geography type": "city",
				"Country": "USA",
				"Region": "",
				"State/Province": "Massachusetts",
				"County": "",
				"City": "Boston",
				"Neighborhood (incl. boroughs)": "",
				"Street address": "",
				"Notes": "",
				"Source": "",
				"songs": [
					{
						"title": "Song for Sasha Banks",
						"album": "Song for Sasha Banks (single)",
						"albums": [
							"Song for Sasha Banks (single)"
						],
						"lyric": "\"Head off to camp in Boston / Come up through the independents\""
					}
				]
			}
		},
		{
			"type": "Feature",
			"geometry": {
				"type": "Point",
				"coordinates": [
					-122.68194444,
					45.52
				]
			},
			"properties": {
				"locationID": "cty054",
				"Location/feature name (incl. historical names)": "Portland",
				"COMPLETE": "FALSE",
				"Geometry type": "point",
				"Geography type": "city",
				"Country": "USA",
				"Region": "",
				"State/Province": "Oregon",
				"County": "",
				"City": "Portland",
				"Neighborhood (incl. boroughs)": "",
				"Street address": "",
				"Notes": "",
				"Source": "",
				"songs": [
					{
						"title": "Running Away with what Freud Said",
						"album": "Taboo VI: The Homecoming",
						"albums": [
							"Taboo VI: The Homecoming"
						],
						"lyric": ""
					},
					{
						"title": "Damn These Vampires",
						"album": "All Eternals Deck",
						"albums": [
							"All Eternals Deck"
						],
						"lyric": "[see comments on fan wiki]"
					},
					{
						"title": "Wear Black",
						"album": "Goths",
						"albums": [
							"Goths"
						],
						"lyric": "[see John's comment on 2017-05-25]"
					},
					{
						"title": "Cleaning Crew",
						"album": "Jenny from Thebes",
						"albums": [
							"Jenny from Thebes"
						],
						"lyric": "\"If you find yourself in Portland / Ask for me\""
					}
				]
			}
		},
		{
			"type": "Feature",
			"geometry": {
				"type": "Point",
				"coordinates": [
					-78.77638889,
					40.37222222
				]
			},
			"properties": {
				"locationID": "cty055",
				"Location/feature name (incl. historical names)": "Ehrenfeld",
				"COMPLETE": "FALSE",
				"Geometry type": "point",
				"Geography type": "city",
				"Country": "USA",
				"Region": "",
				"State/Province": "Pennsylvania",
				"County": " ",
				"City": "Ehrenfeld",
				"Neighborhood (incl. boroughs)": "",
				"Street address": "",
				"Notes": "",
				"Source": "",
				"songs": [
					{
						"title": "For Charles Bronson",
						"album": "All Eternals Deck",
						"albums": [
							"All Eternals Deck"
						],
						"lyric": "\"Work until I drop / Drift from place to place / Ehrenfeld, Pennsylvania scratched into my face\""
					}
				]
			}
		},
		{
			"type": "Feature",
			"geometry": {
				"type": "Point",
				"coordinates": [
					-84.5125,
					39.1
				]
			},
			"properties": {
				"locationID": "cty056",
				"Location/feature name (incl. historical names)": "Cincinnati",
				"COMPLETE": "FALSE",
				"Geometry type": "point",
				"Geography type": "city",
				"Country": "USA",
				"Region": "",
				"State/Province": "Ohio",
				"County": "",
				"City": "Cincinnati",
				"Neighborhood (incl. boroughs)": "",
				"Street address": "",
				"Notes": "",
				"Source": "",
				"songs": [
					{
						"title": "Commandante",
						"album": "Devil in the Shortwave",
						"albums": [
							"Devil in the Shortwave"
						],
						"lyric": "\"And I am never going back to Cincinnati\""
					}
				]
			}
		},
		{
			"type": "Feature",
			"geometry": {
				"type": "Point",
				"coordinates": [
					-95.93722222,
					36.13138889
				]
			},
			"properties": {
				"locationID": "cty057",
				"Location/feature name (incl. historical names)": "Tulsa",
				"COMPLETE": "FALSE",
				"Geometry type": "point",
				"Geography type": "city",
				"Country": "USA",
				"Region": "",
				"State/Province": "Oklahoma",
				"County": "",
				"City": "Tulsa",
				"Neighborhood (incl. boroughs)": "",
				"Street address": "",
				"Notes": "",
				"Source": "",
				"songs": [
					{
						"title": "Tulsa Imperative",
						"album": "[unreleased]",
						"albums": [
							"[unreleased]"
						],
						"lyric": "[title]"
					}
				]
			}
		},
		{
			"type": "Feature",
			"geometry": {
				"type": "Point",
				"coordinates": [
					-77.97194444,
					35.37777778
				]
			},
			"properties": {
				"locationID": "cty058",
				"Location/feature name (incl. historical names)": "Goldsboro",
				"COMPLETE": "FALSE",
				"Geometry type": "point",
				"Geography type": "city",
				"Country": "USA",
				"Region": "",
				"State/Province": "North Carolina",
				"County": " ",
				"City": "Goldsboro",
				"Neighborhood (incl. boroughs)": "",
				"Street address": "",
				"Notes": "",
				"Source": "",
				"songs": [
					{
						"title": "Moon Over Goldsboro",
						"album": "Get Lonely",
						"albums": [
							"Get Lonely"
						],
						"lyric": "[title]"
					}
				]
			}
		},
		{
			"type": "Feature",
			"geometry": {
				"type": "Point",
				"coordinates": [
					-81.66972222,
					41.48222222
				]
			},
			"properties": {
				"locationID": "cty059",
				"Location/feature name (incl. historical names)": "Cleveland",
				"COMPLETE": "FALSE",
				"Geometry type": "point",
				"Geography type": "city",
				"Country": "USA",
				"Region": "",
				"State/Province": "Ohio",
				"County": "",
				"City": "Cleveland",
				"Neighborhood (incl. boroughs)": "",
				"Street address": "",
				"Notes": "",
				"Source": "",
				"songs": [
					{
						"title": "Going to Cleveland",
						"album": "Transmissions to Horace",
						"albums": [
							"Transmissions to Horace"
						],
						"lyric": "\"And you punish me with pity / But I'm going to Cleveland\""
					}
				]
			}
		},
		{
			"type": "Feature",
			"geometry": {
				"type": "Point",
				"coordinates": [
					-106.61,
					35.11083333
				]
			},
			"properties": {
				"locationID": "cty060",
				"Location/feature name (incl. historical names)": "Albuquerque",
				"COMPLETE": "FALSE",
				"Geometry type": "point",
				"Geography type": "city",
				"Country": "USA",
				"Region": "",
				"State/Province": "New Mexico",
				"County": "",
				"City": "Albuquerque",
				"Neighborhood (incl. boroughs)": "",
				"Street address": "",
				"Notes": "",
				"Source": "",
				"songs": [
					{
						"title": "Distant Stations",
						"album": "All Hail West Texas",
						"albums": [
							"All Hail West Texas"
						],
						"lyric": "\"I sang old songs from nowhere / Los Angeles / Albuquerque\""
					}
				]
			}
		},
		{
			"type": "Feature",
			"geometry": {
				"type": "Point",
				"coordinates": [
					-75.83305556,
					36.38138889
				]
			},
			"properties": {
				"locationID": "cty061",
				"Location/feature name (incl. historical names)": "Corolla",
				"COMPLETE": "FALSE",
				"Geometry type": "point",
				"Geography type": "city",
				"Country": "USA",
				"Region": "",
				"State/Province": "North Carolina",
				"County": " ",
				"City": "Corolla",
				"Neighborhood (incl. boroughs)": "",
				"Street address": "",
				"Notes": "",
				"Source": "",
				"songs": [
					{
						"title": "In Corolla",
						"album": "Get Lonely",
						"albums": [
							"Get Lonely"
						],
						"lyric": "[title]"
					}
				]
			}
		},
		{
			"type": "Feature",
			"geometry": {
				"type": "Point",
				"coordinates": [
					-106.48861111,
					31.75916667
				]
			},
			"properties": {
				"locationID": "cty062",
				"Location/feature name (incl. historical names)": "El Paso",
				"COMPLETE": "FALSE",
				"Geometry type": "point",
				"Geography type": "city",
				"Country": "USA",
				"Region": "",
				"State/Province": "Texas",
				"County": "",
				"City": "El Paso",
				"Neighborhood (incl. boroughs)": "",
				"Street address": "",
				"Notes": "",
				"Source": "",
				"songs": [
					{
						"title": "The Legend of Chavo Guerrero",
						"album": "Beat the Champ",
						"albums": [
							"Beat the Champ"
						],
						"lyric": "\"Born down in El Paso, where the tumbleweeds blow / To the middleweight champ of all Mexico\""
					}
				]
			}
		},
		{
			"type": "Feature",
			"geometry": {
				"type": "Point",
				"coordinates": [
					-95.38305556,
					29.76277778
				]
			},
			"properties": {
				"locationID": "cty063",
				"Location/feature name (incl. historical names)": "Houston",
				"COMPLETE": "FALSE",
				"Geometry type": "point",
				"Geography type": "city",
				"Country": "USA",
				"Region": "",
				"State/Province": "Texas",
				"County": "",
				"City": "Houston",
				"Neighborhood (incl. boroughs)": "",
				"Street address": "",
				"Notes": "",
				"Source": "",
				"songs": [
					{
						"title": "The Ballad of Bull Ramos",
						"album": "Beat the Champ",
						"albums": [
							"Beat the Champ"
						],
						"lyric": "\"Sit on my porch in Houston / Let the good times dance across my mind\""
					}
				]
			}
		},
		{
			"type": "Feature",
			"geometry": {
				"type": "Point",
				"coordinates": [
					-96.80888889,
					32.77916667
				]
			},
			"properties": {
				"locationID": "cty064",
				"Location/feature name (incl. historical names)": "Dallas",
				"COMPLETE": "FALSE",
				"Geometry type": "point",
				"Geography type": "city",
				"Country": "USA",
				"Region": "",
				"State/Province": "Texas",
				"County": "",
				"City": "Dallas",
				"Neighborhood (incl. boroughs)": "",
				"Street address": "",
				"Notes": "",
				"Source": "",
				"songs": [
					{
						"title": "Neon Orange Glimmer Song",
						"album": "Sweden",
						"albums": [
							"Sweden"
						],
						"lyric": "\"There's a friend of mine living in Dallas / about a two days' drive from here\""
					},
					{
						"title": "Picture of My Dress",
						"album": "Getting Into Knives",
						"albums": [
							"Getting Into Knives"
						],
						"lyric": "\"I'm in the bathroom of a Dallas, Texas Burger King / And Mr. Steven Tyler is on the overhead speaker\""
					},
					{
						"title": "Going to Dallas",
						"album": "Jenny from Thebes",
						"albums": [
							"Jenny from Thebes"
						],
						"lyric": "\"Going to Dallas / As far as anybody knows\""
					}
				]
			}
		},
		{
			"type": "Feature",
			"geometry": {
				"type": "Point",
				"coordinates": [
					-97.12916667,
					33.21638889
				]
			},
			"properties": {
				"locationID": "cty065",
				"Location/feature name (incl. historical names)": "Denton",
				"COMPLETE": "FALSE",
				"Geometry type": "point",
				"Geography type": "city",
				"Country": "USA",
				"Region": "",
				"State/Province": "Texas",
				"County": "",
				"City": "Denton",
				"Neighborhood (incl. boroughs)": "",
				"Street address": "",
				"Notes": "",
				"Source": "",
				"songs": [
					{
						"title": "The Best Ever Death Metal Band in Denton",
						"album": "All Hail West Texas",
						"albums": [
							"All Hail West Texas"
						],
						"lyric": "\"The best ever death metal band out of Denton / Were a couple of guys, who'd been friends since grade school\""
					}
				]
			}
		},
		{
			"type": "Feature",
			"geometry": {
				"type": "Point",
				"coordinates": [
					-97.74305556,
					30.26722222
				]
			},
			"properties": {
				"locationID": "cty066",
				"Location/feature name (incl. historical names)": "Austin",
				"COMPLETE": "FALSE",
				"Geometry type": "point",
				"Geography type": "city",
				"Country": "USA",
				"Region": "",
				"State/Province": "Texas",
				"County": "",
				"City": "Austin",
				"Neighborhood (incl. boroughs)": "",
				"Street address": "",
				"Notes": "",
				"Source": "",
				"songs": [
					{
						"title": "Source Decay",
						"album": "All Hail West Texas",
						"albums": [
							"All Hail West Texas"
						],
						"lyric": "\"Once a week / I make the drive / two hours east / to check the Austin post office box\""
					}
				]
			}
		},
		{
			"type": "Feature",
			"geometry": {
				"type": "Point",
				"coordinates": [
					-97.48444444,
					25.93027778
				]
			},
			"properties": {
				"locationID": "cty067",
				"Location/feature name (incl. historical names)": "Brownsville",
				"COMPLETE": "FALSE",
				"Geometry type": "point",
				"Geography type": "city",
				"Country": "USA",
				"Region": "",
				"State/Province": "Texas",
				"County": "",
				"City": "Brownsville",
				"Neighborhood (incl. boroughs)": "",
				"Street address": "",
				"Notes": "",
				"Source": "",
				"songs": [
					{
						"title": "It's All Here in Brownsville",
						"album": "Full Force Galesburg",
						"albums": [
							"Full Force Galesburg"
						],
						"lyric": "\"Why do we come down to Brownsville / Year after year after year\""
					}
				]
			}
		},
		{
			"type": "Feature",
			"geometry": {
				"type": "Point",
				"coordinates": [
					-76.87555556,
					40.26972222
				]
			},
			"properties": {
				"locationID": "cty068",
				"Location/feature name (incl. historical names)": "Harrisburg",
				"COMPLETE": "FALSE",
				"Geometry type": "point",
				"Geography type": "city",
				"Country": "USA",
				"Region": "",
				"State/Province": "Pennsylvania",
				"County": " ",
				"City": "Harrisburg",
				"Neighborhood (incl. boroughs)": "",
				"Street address": "",
				"Notes": "",
				"Source": "",
				"songs": [
					{
						"title": "Noctifer Birmingham",
						"album": "Fast Forward 2",
						"albums": [
							"Fast Forward 2"
						],
						"lyric": "\"And then I came down from Harrisburg, Pennsylvania\""
					}
				]
			}
		},
		{
			"type": "Feature",
			"geometry": {
				"type": "Point",
				"coordinates": [
					12.482778,
					41.893333
				]
			},
			"properties": {
				"locationID": "cty070",
				"Location/feature name (incl. historical names)": "Rome",
				"COMPLETE": "FALSE",
				"Geometry type": "point",
				"Geography type": "city",
				"Country": " ",
				"Region": "",
				"State/Province": "",
				"County": "",
				"City": "Rome",
				"Neighborhood (incl. boroughs)": "",
				"Street address": "",
				"Notes": "",
				"Source": "",
				"songs": [
					{
						"title": "Trick Mirror",
						"album": "The Coroner's Gambit",
						"albums": [
							"The Coroner's Gambit"
						],
						"lyric": "\"And blood will run through the streets of Rome today / And roll across the ocean\""
					}
				]
			}
		},
		{
			"type": "Feature",
			"geometry": {
				"type": "Point",
				"coordinates": [
					-86.809444,
					33.5175
				]
			},
			"properties": {
				"locationID": "cty071",
				"Location/feature name (incl. historical names)": "Birmingham, Alabama",
				"COMPLETE": "FALSE",
				"Geometry type": "point",
				"Geography type": "city",
				"Country": "USA",
				"Region": "",
				"State/Province": "Alabama",
				"County": "",
				"City": "Birmingham",
				"Neighborhood (incl. boroughs)": "",
				"Street address": "",
				"Notes": "",
				"Source": "",
				"songs": [
					{
						"title": "Noctifer Birmingham",
						"album": "Fast Forward 2",
						"albums": [
							"Fast Forward 2"
						],
						"lyric": "\"I could feel your bones shivering way down there in Birmingham\""
					}
				]
			}
		},
		{
			"type": "Feature",
			"geometry": {
				"type": "Point",
				"coordinates": [
					-122.33305556,
					47.60972222
				]
			},
			"properties": {
				"locationID": "cty072",
				"Location/feature name (incl. historical names)": "Seattle",
				"COMPLETE": "FALSE",
				"Geometry type": "point",
				"Geography type": "city",
				"Country": "USA",
				"Region": "",
				"State/Province": "Washington",
				"County": "",
				"City": "Seattle",
				"Neighborhood (incl. boroughs)": "",
				"Street address": "",
				"Notes": "",
				"Source": "",
				"songs": [
					{
						"title": "Love Love Love",
						"album": "The Sunset Tree",
						"albums": [
							"The Sunset Tree"
						],
						"lyric": "\"And way out in Seattle, young Kurt Cobain / Snuck out to the greenhouse and put a bullet in his brain\""
					},
					{
						"title": "Doc Gooden",
						"album": "In League With Dragons",
						"albums": [
							"In League With Dragons"
						],
						"lyric": "\"Wheels down in Seattle / Three years ago in this town\""
					}
				]
			}
		},
		{
			"type": "Feature",
			"geometry": {
				"type": "Point",
				"coordinates": [
					-122.09111111,
					47.91916667
				]
			},
			"properties": {
				"locationID": "cty073",
				"Location/feature name (incl. historical names)": "Snohomish",
				"COMPLETE": "FALSE",
				"Geometry type": "point",
				"Geography type": "city",
				"Country": "USA",
				"Region": "",
				"State/Province": "Washington",
				"County": "",
				"City": "Snohomish",
				"Neighborhood (incl. boroughs)": "",
				"Street address": "",
				"Notes": "",
				"Source": "",
				"songs": [
					{
						"title": "Until I Am Whole",
						"album": "Transcendental Youth",
						"albums": [
							"Transcendental Youth"
						],
						"lyric": "\"Sunset on Snohomish / Burn the tree line down\""
					}
				]
			}
		},
		{
			"type": "Feature",
			"geometry": {
				"type": "Point",
				"coordinates": [
					-111.66083333,
					40.24444444
				]
			},
			"properties": {
				"locationID": "cty074",
				"Location/feature name (incl. historical names)": "Provo",
				"COMPLETE": "FALSE",
				"Geometry type": "point",
				"Geography type": "city",
				"Country": "USA",
				"Region": "",
				"State/Province": "Utah",
				"County": "",
				"City": "Provo",
				"Neighborhood (incl. boroughs)": "",
				"Street address": "",
				"Notes": "",
				"Source": "",
				"songs": [
					{
						"title": "The Mess Inside",
						"album": "All Hail West Texas",
						"albums": [
							"All Hail West Texas"
						],
						"lyric": "\"We took a weekend, drove to Provo / the snow was white and fluffy\"\""
					}
				]
			}
		},
		{
			"type": "Feature",
			"geometry": {
				"type": "Point",
				"coordinates": [
					-89.97111111,
					35.1175
				]
			},
			"properties": {
				"locationID": "cty075",
				"Location/feature name (incl. historical names)": "Memphis",
				"COMPLETE": "FALSE",
				"Geometry type": "point",
				"Geography type": "city",
				"Country": "USA",
				"Region": "",
				"State/Province": "Tennessee",
				"County": "",
				"City": "Memphis",
				"Neighborhood (incl. boroughs)": "",
				"Street address": "",
				"Notes": "",
				"Source": "",
				"songs": [
					{
						"title": "Passaic, 1975",
						"album": "In League With Dragons",
						"albums": [
							"In League With Dragons"
						],
						"lyric": "\"And the tech crew in Memphis has a present for me\""
					},
					{
						"title": "Going to Tennessee",
						"album": "Why You All So Thief?",
						"albums": [
							"Why You All So Thief?"
						],
						"lyric": "\"And the sun is setting on Memphis\""
					}
				]
			}
		},
		{
			"type": "Feature",
			"geometry": {
				"type": "Point",
				"coordinates": [
					-102.1,
					32
				]
			},
			"properties": {
				"locationID": "cty076",
				"Location/feature name (incl. historical names)": "Midland",
				"COMPLETE": "FALSE",
				"Geometry type": "point",
				"Geography type": "city",
				"Country": "USA",
				"Region": "",
				"State/Province": "Texas",
				"County": "",
				"City": "Midland",
				"Neighborhood (incl. boroughs)": "",
				"Street address": "",
				"Notes": "",
				"Source": "",
				"songs": [
					{
						"title": "Midland",
						"album": "All Hail West Texas (2013 re-issue)",
						"albums": [
							"All Hail West Texas (2013 re-issue)"
						],
						"lyric": "[title]"
					}
				]
			}
		},
		{
			"type": "Feature",
			"geometry": {
				"type": "Point",
				"coordinates": [
					-97.15583333,
					31.55138889
				]
			},
			"properties": {
				"locationID": "cty077",
				"Location/feature name (incl. historical names)": "Waco",
				"COMPLETE": "FALSE",
				"Geometry type": "point",
				"Geography type": "city",
				"Country": "USA",
				"Region": "",
				"State/Province": "Texas",
				"County": "",
				"City": "Waco",
				"Neighborhood (incl. boroughs)": "",
				"Street address": "",
				"Notes": "",
				"Source": "",
				"songs": [
					{
						"title": "Waco",
						"album": "All Hail West Texas (2013 re-issue)",
						"albums": [
							"All Hail West Texas (2013 re-issue)"
						],
						"lyric": "[title]"
					}
				]
			}
		},
		{
			"type": "Feature",
			"geometry": {
				"type": "Point",
				"coordinates": [
					-117.69,
					34.01777778
				]
			},
			"properties": {
				"locationID": "cty078",
				"Location/feature name (incl. historical names)": "Chino",
				"COMPLETE": "FALSE",
				"Geometry type": "point",
				"Geography type": "city",
				"Country": "USA",
				"Region": "",
				"State/Province": "California",
				"County": "",
				"City": "Chino",
				"Neighborhood (incl. boroughs)": "",
				"Street address": "",
				"Notes": "",
				"Source": "",
				"songs": [
					{
						"title": "Going to Chino",
						"album": "The Hound Chronicles",
						"albums": [
							"The Hound Chronicles"
						],
						"lyric": "\"I'd like to say hello / To all our friends from Chino\""
					},
					{
						"title": "Pigs That Ran Straightaway into the Water, Triumph Of",
						"album": "We Shall All Be Healed",
						"albums": [
							"We Shall All Be Healed"
						],
						"lyric": "\"I come from Chino where the asphalt sprouts\""
					}
				]
			}
		},
		{
			"type": "Feature",
			"geometry": {
				"type": "Point",
				"coordinates": [
					-117.69805556,
					33.46722222
				]
			},
			"properties": {
				"locationID": "cty079",
				"Location/feature name (incl. historical names)": "Dana Point",
				"COMPLETE": "FALSE",
				"Geometry type": "point",
				"Geography type": "city",
				"Country": "USA",
				"Region": "",
				"State/Province": "California",
				"County": "",
				"City": "Dana Point",
				"Neighborhood (incl. boroughs)": "",
				"Street address": "",
				"Notes": "",
				"Source": "",
				"songs": [
					{
						"title": "Cobscook Bay",
						"album": "Isopanisad Radio Hour",
						"albums": [
							"Isopanisad Radio Hour"
						],
						"lyric": "\"And Gail used to come around and trash the joint / But she moved off to Dana Point\""
					}
				]
			}
		},
		{
			"type": "Feature",
			"geometry": {
				"type": "Point",
				"coordinates": [
					-110.92638889,
					32.22166667
				]
			},
			"properties": {
				"locationID": "cty080",
				"Location/feature name (incl. historical names)": "Tucson",
				"COMPLETE": "FALSE",
				"Geometry type": "point",
				"Geography type": "city",
				"Country": "USA",
				"Region": "",
				"State/Province": "Arizona",
				"County": "",
				"City": "Tucson",
				"Neighborhood (incl. boroughs)": "",
				"Street address": "",
				"Notes": "",
				"Source": "https://datahub.io/core/geo-countries#resource-countries",
				"songs": [
					{
						"title": "Tucson Fog",
						"album": "Hex of Infinite Binding EP",
						"albums": [
							"Hex of Infinite Binding EP"
						],
						"lyric": "[title]"
					}
				]
			}
		},
		{
			"type": "Feature",
			"geometry": {
				"type": "Point",
				"coordinates": [
					-117.71972222,
					34.11
				]
			},
			"properties": {
				"locationID": "cty081",
				"Location/feature name (incl. historical names)": "Claremont",
				"COMPLETE": "FALSE",
				"Geometry type": "point",
				"Geography type": "city",
				"Country": "USA",
				"Region": "",
				"State/Province": "California",
				"County": "",
				"City": "Claremont",
				"Neighborhood (incl. boroughs)": "",
				"Street address": "",
				"Notes": "",
				"Source": "",
				"songs": [
					{
						"title": "Pigs That Ran Straightaway into the Water, Triumph Of",
						"album": "We Shall All Be Healed",
						"albums": [
							"We Shall All Be Healed"
						],
						"lyric": "\"And even if I have to go to Claremont / Well I guess I'll just have to go to Claremont\""
					}
				]
			}
		},
		{
			"type": "Feature",
			"geometry": {
				"type": "Point",
				"coordinates": [
					-88.04305556,
					30.69444444
				]
			},
			"properties": {
				"locationID": "cty082",
				"Location/feature name (incl. historical names)": "Mobile",
				"COMPLETE": "FALSE",
				"Geometry type": "point",
				"Geography type": "city",
				"Country": "USA",
				"Region": "",
				"State/Province": "Alabama",
				"County": "",
				"City": "Mobile",
				"Neighborhood (incl. boroughs)": "",
				"Street address": "",
				"Notes": "",
				"Source": "",
				"songs": [
					{
						"title": "Mobile",
						"album": "Dark in Here",
						"albums": [
							"Dark in Here"
						],
						"lyric": "\"I'm on a balcony in Mobile, Alabama, waiting for the wind to throw me down\""
					}
				]
			}
		},
		{
			"type": "Feature",
			"geometry": {
				"type": "Point",
				"coordinates": [
					-86.27916667,
					32.36166667
				]
			},
			"properties": {
				"locationID": "cty083",
				"Location/feature name (incl. historical names)": "Montgomery",
				"COMPLETE": "FALSE",
				"Geometry type": "point",
				"Geography type": "city",
				"Country": "USA",
				"Region": "",
				"State/Province": "Alabama",
				"County": "",
				"City": "Montgomery",
				"Neighborhood (incl. boroughs)": " ",
				"Street address": "",
				"Notes": "",
				"Source": "",
				"songs": [
					{
						"title": "Alabama Nova",
						"album": "Nothing for Juice",
						"albums": [
							"Nothing for Juice"
						],
						"lyric": "\"Let me take you down / Let me ease you around Montgomery\""
					}
				]
			}
		},
		{
			"type": "Feature",
			"geometry": {
				"type": "Point",
				"coordinates": [
					121.5625,
					25.0375
				]
			},
			"properties": {
				"locationID": "cty084",
				"Location/feature name (incl. historical names)": "Taipei",
				"COMPLETE": "FALSE",
				"Geometry type": "point",
				"Geography type": "city",
				"Country": "Taiwan",
				"Region": "",
				"State/Province": "",
				"County": "",
				"City": "Taipei",
				"Neighborhood (incl. boroughs)": "",
				"Street address": "",
				"Notes": "",
				"Source": "https://datahub.io/core/geo-countries#resource-countries",
				"songs": [
					{
						"title": "Color in Your Cheeks",
						"album": "All Hail West Texas",
						"albums": [
							"All Hail West Texas"
						],
						"lyric": "\"She came in on the red-eye to Dallas-Fort Worth / All the way from sunny Taipei\""
					},
					{
						"title": "Clean Slate",
						"album": "Jenny from Thebes",
						"albums": [
							"Jenny from Thebes"
						],
						"lyric": "\"Leave home feeling empty, change planes in Taipei\""
					}
				]
			}
		},
		{
			"type": "Feature",
			"geometry": {
				"type": "Point",
				"coordinates": [
					100.49416667,
					13.7525
				]
			},
			"properties": {
				"locationID": "cty085",
				"Location/feature name (incl. historical names)": "Bangkok",
				"COMPLETE": "FALSE",
				"Geometry type": "point",
				"Geography type": "city",
				"Country": "Thailand",
				"Region": "",
				"State/Province": "",
				"County": "",
				"City": "Bangkok",
				"Neighborhood (incl. boroughs)": "",
				"Street address": "",
				"Notes": "",
				"Source": "",
				"songs": [
					{
						"title": "Source Decay",
						"album": "All Hail West Texas",
						"albums": [
							"All Hail West Texas"
						],
						"lyric": "\"I remember the train headed south out of Bangkok / Down toward the water\""
					}
				]
			}
		},
		{
			"type": "Feature",
			"geometry": {
				"type": "Point",
				"coordinates": [
					-117.75583333,
					34.06083333
				]
			},
			"properties": {
				"locationID": "cty086",
				"Location/feature name (incl. historical names)": "Pomona",
				"COMPLETE": "FALSE",
				"Geometry type": "point",
				"Geography type": "city",
				"Country": "USA",
				"Region": "",
				"State/Province": "California",
				"County": "",
				"City": "Pomona",
				"Neighborhood (incl. boroughs)": "",
				"Street address": "",
				"Notes": "",
				"Source": "",
				"songs": [
					{
						"title": "We Do It Different on the West Coast",
						"album": "Goths",
						"albums": [
							"Goths"
						],
						"lyric": "\"I heard they had a problem with some skinheads / At a show in a machine shop in Pomona\""
					}
				]
			}
		},
		{
			"type": "Feature",
			"geometry": {
				"type": "Point",
				"coordinates": [
					-122.366667,
					40.583333
				]
			},
			"properties": {
				"locationID": "cty087",
				"Location/feature name (incl. historical names)": "Redding",
				"COMPLETE": "FALSE",
				"Geometry type": "point",
				"Geography type": "city",
				"Country": "USA",
				"Region": "",
				"State/Province": "California",
				"County": "",
				"City": "Redding",
				"Neighborhood (incl. boroughs)": "",
				"Street address": "",
				"Notes": "",
				"Source": "",
				"songs": [
					{
						"title": "New Star Song",
						"album": "Beautiful Rat Sunset",
						"albums": [
							"Beautiful Rat Sunset"
						],
						"lyric": "\"I thought of you up in Canada as the lightning storms lit up / All downtown Redding\""
					}
				]
			}
		},
		{
			"type": "Feature",
			"geometry": {
				"type": "Point",
				"coordinates": [
					-117.6510,
					34.0633
				]
			},
			"properties": {
				"locationID": "cty088",
				"Location/feature name (incl. historical names)": "Ontario, California",
				"COMPLETE": "FALSE",
				"Geometry type": "point",
				"Geography type": "city",
				"Country": "USA",
				"Region": "",
				"State/Province": "California",
				"County": "",
				"City": "Ontario",
				"Neighborhood (incl. boroughs)": "",
				"Street address": "",
				"Notes": "",
				"Source": "https://datahub.io/core/geo-countries#resource-countries",
				"songs": [
					{
						"title": "Ontario",
						"album": "Full Force Galesburg",
						"albums": [
							"Full Force Galesburg"
						],
						"lyric": "[title]"
					},
					{
						"title": "Rage of Travers",
						"album": "Goths",
						"albums": [
							"Goths"
						],
						"lyric": "\"This used to be the place to go / Still draw pretty good in Ontario\""
					}
				]
			}
		},
		{
			"type": "Feature",
			"geometry": {
				"type": "Point",
				"coordinates": [
					-116.5453,
					33.8303
				]
			},
			"properties": {
				"locationID": "cty089",
				"Location/feature name (incl. historical names)": "Palm Springs",
				"COMPLETE": "FALSE",
				"Geometry type": "point",
				"Geography type": "city",
				"Country": "USA",
				"Region": "",
				"State/Province": "California",
				"County": "",
				"City": "Palm Springs",
				"Neighborhood (incl. boroughs)": " ",
				"Street address": "",
				"Notes": "",
				"Source": "",
				"songs": [
					{
						"title": "Raja Vocative",
						"album": "Orange Raja, Blood Royal",
						"albums": [
							"Orange Raja, Blood Royal"
						],
						"lyric": "\"I could hear you singing / From all the way across the country in Palm Springs\""
					}
				]
			}
		},
		{
			"type": "Feature",
			"geometry": {
				"type": "Point",
				"coordinates": [
					-118.695,
					34.035
				]
			},
			"properties": {
				"locationID": "cty090",
				"Location/feature name (incl. historical names)": "Malibu",
				"COMPLETE": "FALSE",
				"Geometry type": "point",
				"Geography type": "city",
				"Country": "USA",
				"Region": "",
				"State/Province": "California",
				"County": "",
				"City": "Malibu",
				"Neighborhood (incl. boroughs)": "",
				"Street address": "",
				"Notes": "",
				"Source": "",
				"songs": [
					{
						"title": "Sinaloan Milk Snake Song",
						"album": "Zopilote Machine",
						"albums": [
							"Zopilote Machine"
						],
						"lyric": "\"I remember California, I remember Malibu / I remember the states and the names of the cities but I don't remember you\""
					},
					{
						"title": "Teenage World",
						"album": "Transmissions to Horace",
						"albums": [
							"Transmissions to Horace"
						],
						"lyric": "\"I'm gonna take this rabbit into Malibu\""
					},
					{
						"title": "Wait for You",
						"album": "Babylon Springs EP",
						"albums": [
							"Babylon Springs EP"
						],
						"lyric": "\"When it came time to wait for you / I took the bus to Malibu / Found a caf\u00e9 by the ocean / Watched the sky for signs"
					},
					{
						"title": "Going to Malibu",
						"album": "Chile de \u00c1rbol",
						"albums": [
							"Chile de \u00c1rbol"
						],
						"lyric": "[title]"
					}
				]
			}
		},
		{
			"type": "Feature",
			"geometry": {
				"type": "Point",
				"coordinates": [
					-118.08333333,
					33.90694444
				]
			},
			"properties": {
				"locationID": "cty091",
				"Location/feature name (incl. historical names)": "Norwalk",
				"COMPLETE": "FALSE",
				"Geometry type": "point",
				"Geography type": "city",
				"Country": "USA",
				"Region": "",
				"State/Province": "California",
				"County": "",
				"City": "Norwalk",
				"Neighborhood (incl. boroughs)": "",
				"Street address": "",
				"Notes": "",
				"Source": "https://datahub.io/core/geo-countries#resource-countries",
				"songs": [
					{
						"title": "Going to Norwalk",
						"album": "Hot Garden Stomp",
						"albums": [
							"Hot Garden Stomp"
						],
						"lyric": "[title]"
					},
					{
						"title": "Chino Love Song 1979",
						"album": "Taking the Dative",
						"albums": [
							"Taking the Dative"
						],
						"lyric": "\"And it made me remember the sunflower that popped up outside my window one / Morning in Norwalk\""
					}
				]
			}
		},
		{
			"type": "Feature",
			"geometry": {
				"type": "Point",
				"coordinates": [
					-117.96027778,
					33.77888889
				]
			},
			"properties": {
				"locationID": "cty092",
				"Location/feature name (incl. historical names)": "Garden Grove",
				"COMPLETE": "FALSE",
				"Geometry type": "point",
				"Geography type": "city",
				"Country": "USA",
				"Region": "",
				"State/Province": "California",
				"County": "",
				"City": "Garden Grove",
				"Neighborhood (incl. boroughs)": " ",
				"Street address": "",
				"Notes": "",
				"Source": "",
				"songs": [
					{
						"title": "The Young Thousands",
						"album": "We Shall All Be Healed",
						"albums": [
							"We Shall All Be Healed"
						],
						"lyric": "\"You drive east from the ocean with both hands tight on the wheel / And you go past Garden Grove as the pleasure index rises\""
					},
					{
						"title": "Home Again Garden Grove",
						"album": "We Shall All Be Healed",
						"albums": [
							"We Shall All Be Healed"
						],
						"lyric": "\"Home again / Home again / Garden Grove / Garden Grove\""
					}
				]
			}
		},
		{
			"type": "Feature",
			"geometry": {
				"type": "Point",
				"coordinates": [
					-118.25,
					34.05
				]
			},
			"properties": {
				"locationID": "cty093",
				"Location/feature name (incl. historical names)": "Los Angeles",
				"COMPLETE": "FALSE",
				"Geometry type": "point",
				"Geography type": "city",
				"Country": "USA",
				"Region": "",
				"State/Province": "California",
				"County": "",
				"City": "Los Angeles",
				"Neighborhood (incl. boroughs)": "",
				"Street address": "",
				"Notes": "",
				"Source": "https://datahub.io/core/geo-countries#resource-countries",
				"songs": [
					{
						"title": "Distant Stations",
						"album": "All Hail West Texas",
						"albums": [
							"All Hail West Texas"
						],
						"lyric": "\"I sang old songs from nowhere / Los Angeles / Albuquerque\""
					},
					{
						"title": "Shelved",
						"album": "Goths",
						"albums": [
							"Goths"
						],
						"lyric": "\"Don't want to write songs with this clown they set me up with in a Los Angeles rehearsal studio\""
					},
					{
						"title": "Abandoned Flesh",
						"album": "Goths",
						"albums": [
							"Goths"
						],
						"lyric": "\"Siouxsie has enough hits to keep the bills paid / Every New Year's in Los Angeles, you can still see Richard Blade\""
					},
					{
						"title": "No More Tears",
						"album": "Marsh Witch Visions EP",
						"albums": [
							"Marsh Witch Visions EP"
						],
						"lyric": "\"Insane in a studio in Los Angeles / Rudderless and hungry and high\""
					}
				]
			}
		},
		{
			"type": "Feature",
			"geometry": {
				"type": "Point",
				"coordinates": [
					-84.25333333,
					30.455
				]
			},
			"properties": {
				"locationID": "cty094",
				"Location/feature name (incl. historical names)": "Tallahassee",
				"COMPLETE": "FALSE",
				"Geometry type": "point",
				"Geography type": "city",
				"Country": "USA",
				"Region": "",
				"State/Province": "Florida",
				"County": "",
				"City": "Tallahassee",
				"Neighborhood (incl. boroughs)": "",
				"Street address": "",
				"Notes": "",
				"Source": "",
				"songs": [
					{
						"title": "Alpha Sun Hat",
						"album": "Zopilote Machine",
						"albums": [
							"Zopilote Machine"
						],
						"lyric": "\"If you're planning your escape, you know I'm all for you / As I watch the sun come up again over Tallahassee, Florida\""
					},
					{
						"title": "Tallahassee",
						"album": "Tallahassee",
						"albums": [
							"Tallahassee"
						],
						"lyric": "[title]"
					}
				]
			}
		},
		{
			"type": "Feature",
			"geometry": {
				"type": "Point",
				"coordinates": [
					-82.45861111,
					27.9475
				]
			},
			"properties": {
				"locationID": "cty095",
				"Location/feature name (incl. historical names)": "Tampa",
				"COMPLETE": "FALSE",
				"Geometry type": "point",
				"Geography type": "city",
				"Country": "USA",
				"Region": "",
				"State/Province": "Florida",
				"County": "",
				"City": "Tampa",
				"Neighborhood (incl. boroughs)": "",
				"Street address": "",
				"Notes": "",
				"Source": "",
				"songs": [
					{
						"title": "Jam Eater Blues",
						"album": "Jam Eater Blues",
						"albums": [
							"Jam Eater Blues"
						],
						"lyric": "\"Life is too short to spend the rest of it down here in Tampa\""
					},
					{
						"title": "First Few Desperate Hours",
						"album": "Tallahassee",
						"albums": [
							"Tallahassee"
						],
						"lyric": "\"Bad luck comes in from Tampa\""
					}
				]
			}
		},
		{
			"type": "Feature",
			"geometry": {
				"type": "Point",
				"coordinates": [
					-117.91861111,
					34.05666667
				]
			},
			"properties": {
				"locationID": "cty096",
				"Location/feature name (incl. historical names)": "West Covina",
				"COMPLETE": "FALSE",
				"Geometry type": "point",
				"Geography type": "city",
				"Country": "USA",
				"Region": "",
				"State/Province": "California",
				"County": "",
				"City": "West Covina",
				"Neighborhood (incl. boroughs)": "",
				"Street address": "",
				"Notes": "",
				"Source": "",
				"songs": [
					{
						"title": "Alibi",
						"album": "Babylon Springs EP",
						"albums": [
							"Babylon Springs EP"
						],
						"lyric": "\"Moon over West Covina was huge and white / And I was like a patient on a table headed for the light\""
					},
					{
						"title": "The Grey King and the Silver Flame Attunement",
						"album": "Goths",
						"albums": [
							"Goths"
						],
						"lyric": "\"In the secret caverns underneath West Covina / Half desperate for peace\""
					}
				]
			}
		},
		{
			"type": "Feature",
			"geometry": {
				"type": "Point",
				"coordinates": [
					-80.27861111,
					27.17111111
				]
			},
			"properties": {
				"locationID": "cty097",
				"Location/feature name (incl. historical names)": "Palm City",
				"COMPLETE": "FALSE",
				"Geometry type": "point",
				"Geography type": "city",
				"Country": "USA",
				"Region": "",
				"State/Province": "Florida",
				"County": "",
				"City": "Palm City",
				"Neighborhood (incl. boroughs)": "",
				"Street address": "",
				"Notes": "",
				"Source": "",
				"songs": [
					{
						"title": "Wild Palm City (AKA Within You, Without You)",
						"album": "Back to the Egg, Asshole",
						"albums": [
							"Back to the Egg, Asshole"
						],
						"lyric": "[title]"
					}
				]
			}
		},
		{
			"type": "Feature",
			"geometry": {
				"type": "Point",
				"coordinates": [
					-121.89055556,
					37.33611111
				]
			},
			"properties": {
				"locationID": "cty098",
				"Location/feature name (incl. historical names)": "San Jose",
				"COMPLETE": "FALSE",
				"Geometry type": "point",
				"Geography type": "city",
				"Country": "USA",
				"Region": "",
				"State/Province": "California",
				"County": "",
				"City": "San Jose",
				"Neighborhood (incl. boroughs)": "",
				"Street address": "",
				"Notes": "",
				"Source": "",
				"songs": [
					{
						"title": "Born Ready",
						"album": "Isopanisad Radio Hour",
						"albums": [
							"Isopanisad Radio Hour"
						],
						"lyric": "\"I'm going to see you in San Jose / And I'm going to take you out for good\""
					}
				]
			}
		},
		{
			"type": "Feature",
			"geometry": {
				"type": "Point",
				"coordinates": [
					-119.7,
					34.41666667
				]
			},
			"properties": {
				"locationID": "cty099",
				"Location/feature name (incl. historical names)": "Santa Barbara",
				"COMPLETE": "FALSE",
				"Geometry type": "point",
				"Geography type": "city",
				"Country": "USA",
				"Region": "",
				"State/Province": "California",
				"County": "",
				"City": "Santa Barbara",
				"Neighborhood (incl. boroughs)": " ",
				"Street address": "",
				"Notes": "",
				"Source": "https://datahub.io/core/geo-countries#resource-countries",
				"songs": [
					{
						"title": "Matthew 25:21",
						"album": "The Life of the World to Come",
						"albums": [
							"The Life of the World to Come"
						],
						"lyric": "\"I flew in / From Pennsylvania / When I heard the hour was coming fast / And I docked in Santa Barbara\""
					}
				]
			}
		},
		{
			"type": "Feature",
			"geometry": {
				"type": "Point",
				"coordinates": [
					-117.3,
					34.1
				]
			},
			"properties": {
				"locationID": "cty100",
				"Location/feature name (incl. historical names)": "San Bernardino",
				"COMPLETE": "FALSE",
				"Geometry type": "point",
				"Geography type": "city",
				"Country": "USA",
				"Region": "",
				"State/Province": "California",
				"County": "",
				"City": "San Bernardino",
				"Neighborhood (incl. boroughs)": " ",
				"Street address": "",
				"Notes": "",
				"Source": "",
				"songs": [
					{
						"title": "Song for Tura Satana",
						"album": "Zopilote Machine",
						"albums": [
							"Zopilote Machine"
						],
						"lyric": "\"And the stardust came down, royal blue / As the San Bernardino sky showered over you\""
					},
					{
						"title": "San Bernardino",
						"album": "Heretic Pride",
						"albums": [
							"Heretic Pride"
						],
						"lyric": "\"And the day was bright and fine / And the highway sign said, \"San Bernardino welcomes you\""
					}
				]
			}
		},
		{
			"type": "Feature",
			"geometry": {
				"type": "Point",
				"coordinates": [
					-122.41638889,
					37.7775
				]
			},
			"properties": {
				"locationID": "cty101",
				"Location/feature name (incl. historical names)": "San Francisco",
				"COMPLETE": "FALSE",
				"Geometry type": "point",
				"Geography type": "city",
				"Country": "USA",
				"Region": "",
				"State/Province": "California",
				"County": "",
				"City": "San Francisco",
				"Neighborhood (incl. boroughs)": " ",
				"Street address": "",
				"Notes": "",
				"Source": "https://datahub.io/core/geo-countries#resource-countries",
				"songs": [
					{
						"title": "We Do It Different on the West Coast",
						"album": "Goths",
						"albums": [
							"Goths"
						],
						"lyric": "\"I feel like half my friends have moved to San Francisco\""
					}
				]
			}
		},
		{
			"type": "Feature",
			"geometry": {
				"type": "Point",
				"coordinates": [
					-86.15805556,
					39.76861111
				]
			},
			"properties": {
				"locationID": "cty102",
				"Location/feature name (incl. historical names)": "Indianapolis",
				"COMPLETE": "FALSE",
				"Geometry type": "point",
				"Geography type": "city",
				"Country": "USA",
				"Region": "",
				"State/Province": "Indiana",
				"County": "",
				"City": "Indianapolis",
				"Neighborhood (incl. boroughs)": "",
				"Street address": "",
				"Notes": "",
				"Source": "",
				"songs": [
					{
						"title": "Passaic, 1975",
						"album": "In League With Dragons",
						"albums": [
							"In League With Dragons"
						],
						"lyric": "\"Tonight Indianapolis, tomorrow the flood\""
					}
				]
			}
		},
		{
			"type": "Feature",
			"geometry": {
				"type": "Point",
				"coordinates": [
					-90.08055556,
					29.96666667
				]
			},
			"properties": {
				"locationID": "cty103",
				"Location/feature name (incl. historical names)": "New Orleans",
				"COMPLETE": "FALSE",
				"Geometry type": "point",
				"Geography type": "city",
				"Country": "USA",
				"Region": "",
				"State/Province": "Louisiana",
				"County": "",
				"City": "New Orleans",
				"Neighborhood (incl. boroughs)": "",
				"Street address": "",
				"Notes": "",
				"Source": "",
				"songs": [
					{
						"title": "The Mess Inside",
						"album": "All Hail West Texas",
						"albums": [
							"All Hail West Texas"
						],
						"lyric": "\"We went down to New Orleans one weekend in the spring / Looked hard for what we'd lost\""
					}
				]
			}
		},
		{
			"type": "Feature",
			"geometry": {
				"type": "Point",
				"coordinates": [
					-91.178611,
					30.4475
				]
			},
			"properties": {
				"locationID": "cty104",
				"Location/feature name (incl. historical names)": "Baton Rouge",
				"COMPLETE": "TRUE",
				"Geometry type": "point",
				"Geography type": "city",
				"Country": "USA",
				"Region": "",
				"State/Province": "Louisiana",
				"County": "",
				"City": "Baton Rouge",
				"Neighborhood (incl. boroughs)": "",
				"Street address": "",
				"Notes": "",
				"Source": "geohack.toolforge.org",
				"songs": [
					{
						"title": "Cleaning Crew",
						"album": "Jenny from Thebes",
						"albums": [
							"Jenny from Thebes"
						],
						"lyric": "\"Look on every lamppost / From here to Baton Rouge\""
					}
				]
			}
		},
		{
			"type": "Feature",
			"geometry": {
				"type": "Point",
				"coordinates": [
					-79.347015,
					43.651070
				]
			},
			"properties": {
				"locationID": "cty105",
				"Location/feature name (incl. historical names)": "Toronto",
				"COMPLETE": "TRUE",
				"Geometry type": "point",
				"Geography type": "city",
				"Country": "Canada",
				"Region": "",
				"State/Province": "Ontario",
				"County": "",
				"City": "Toronto",
				"Neighborhood (incl. boroughs)": "",
				"Street address": "",
				"Notes": "",
				"Source": "geohack.toolforge.org",
				"songs": [
					{
						"title": "Fire Editorial",
						"album": "Beat the Champ",
						"albums": [
							"Beat the Champ"
						],
						"lyric": "\"Two blinded in Detroit!\""
					}
				]
			}
		}
	]
}